{"type":"FeatureCollection","features":[{"type":"Feature","geometry":{"type":"Point","coordinates":[44.7143862,41.721403]},"properties":{"pole_id":1,"labels":["8.3.1"],"track_ids":[0,159],"conf":0.588,"n_frames":10,"first_ts":1791539226655557000,"last_ts":1791539636307528000,"image":"20261009T094326Z_photos/sign_1.jpg","gnss_q":"FLOAT","n_obs":10,"n_views":10,"dmin_m":4.571,"dmed_m":4.6,"err_h_m":null,"tier":"C","method":"legacy","source":"gnss","pos_src":"rt","n_tracks":2,"n_passes":2,"chunk":"20261009T094326Z_c0001","prov":0,"photo_exact":true,"photo_url":"https://drive.google.com/thumbnail?id=1CibczX3-GzBNQgKSWA-PYJA5QqSQTVG8&sz=w1200","photo_view":"https://drive.google.com/file/d/1CibczX3-GzBNQgKSWA-PYJA5QqSQTVG8/view","label_stats":{"8.3.1":{"detections":14,"mean_conf":0.494,"max_conf":0.652}},"alt":578.95,"session":"2026-10-09_20261009T094326Z","kind":"sign"}},{"type":"Feature","geometry":{"type":"Point","coordinates":[44.7143953,41.7214006]},"properties":{"pole_id":2,"labels":["7.4"],"track_ids":[1,158],"conf":0.468,"n_frames":3,"first_ts":1791539243620886000,"last_ts":1791539629308472000,"image":"20261009T094326Z_photos/sign_2.jpg","gnss_q":"FLOAT","n_obs":3,"n_views":3,"dmin_m":4.586,"dmed_m":9.775,"err_h_m":null,"tier":"C","method":"legacy","source":"gnss","pos_src":"rt","n_tracks":2,"n_passes":2,"chunk":"20261009T094326Z_c0001","prov":0,"photo_exact":true,"photo_url":"https://drive.google.com/thumbnail?id=18Xt1zYHi7TJKPlPMCy0gLbdZJFc7rXQU&sz=w1200","photo_view":"https://drive.google.com/file/d/18Xt1zYHi7TJKPlPMCy0gLbdZJFc7rXQU/view","label_stats":{"7.4":{"detections":1675,"mean_conf":0.843,"max_conf":0.963}},"alt":572.68,"session":"2026-10-09_20261009T094326Z","kind":"sign"}},{"type":"Feature","geometry":{"type":"Point","coordinates":[44.7143665,41.7211317]},"properties":{"pole_id":3,"labels":["Manqanis_gadayvana"],"track_ids":[3],"conf":0.894,"n_frames":163,"first_ts":1791539275451389000,"last_ts":1791539281317504000,"image":"20261009T094326Z_photos/sign_3.jpg","gnss_q":"DGNSS","n_obs":163,"n_views":163,"dmin_m":3.784,"dmed_m":7.68,"err_h_m":null,"tier":"C","method":"legacy","source":"gnss","pos_src":"rt","n_tracks":1,"n_passes":1,"chunk":"20261009T094326Z_c0001","prov":0,"photo_exact":true,"photo_url":"https://drive.google.com/thumbnail?id=1jR_aMDBy9QI8ahED1Vzvkn1ahPxn5K0j&sz=w1200","photo_view":"https://drive.google.com/file/d/1jR_aMDBy9QI8ahED1Vzvkn1ahPxn5K0j/view","label_stats":{"Manqanis_gadayvana":{"detections":163,"mean_conf":0.703,"max_conf":0.894}},"alt":573.68,"session":"2026-10-09_20261009T094326Z","kind":"sign"}},{"type":"Feature","geometry":{"type":"Point","coordinates":[44.7143656,41.7211314]},"properties":{"pole_id":4,"labels":["3.27"],"track_ids":[4],"conf":0.928,"n_frames":164,"first_ts":1791539275618045000,"last_ts":1791539280984193000,"image":"20261009T094326Z_photos/sign_4.jpg","gnss_q":"DGNSS","n_obs":164,"n_views":162,"dmin_m":4.211,"dmed_m":8.182,"err_h_m":null,"tier":"C","method":"legacy","source":"gnss","pos_src":"rt","n_tracks":1,"n_passes":1,"chunk":"20261009T094326Z_c0001","prov":0,"photo_exact":true,"photo_url":"https://drive.google.com/thumbnail?id=16frNJFIhXk8SOnJgNZ1zzYnA82UGQ2uL&sz=w1200","photo_view":"https://drive.google.com/file/d/16frNJFIhXk8SOnJgNZ1zzYnA82UGQ2uL/view","label_stats":{"3.27":{"detections":162,"mean_conf":0.861,"max_conf":0.928}},"alt":574.23,"session":"2026-10-09_20261009T094326Z","kind":"sign"}},{"type":"Feature","geometry":{"type":"Point","coordinates":[44.7142196,41.7211515]},"properties":{"pole_id":5,"labels":["7.4"],"track_ids":[5],"conf":0.929,"n_frames":31,"first_ts":1791539285583763000,"last_ts":1791539286650327000,"image":"20261009T094326Z_photos/sign_5.jpg","gnss_q":"FLOAT","n_obs":31,"n_views":30,"dmin_m":4.564,"dmed_m":5.441,"err_h_m":null,"tier":"C","method":"legacy","source":"gnss","pos_src":"rt","n_tracks":1,"n_passes":1,"chunk":"20261009T094326Z_c0001","prov":0,"photo_exact":true,"photo_url":"https://drive.google.com/thumbnail?id=1pMu374vOFuVBnb0i0V2KosBO2p9OYJ-m&sz=w1200","photo_view":"https://drive.google.com/file/d/1pMu374vOFuVBnb0i0V2KosBO2p9OYJ-m/view","label_stats":{"7.4":{"detections":32,"mean_conf":0.854,"max_conf":0.929}},"alt":573.75,"session":"2026-10-09_20261009T094326Z","kind":"sign"}},{"type":"Feature","geometry":{"type":"Point","coordinates":[44.7141189,41.7212426]},"properties":{"pole_id":6,"labels":["7.4"],"track_ids":[6,7],"conf":0.926,"n_frames":53,"first_ts":1791539286017046000,"last_ts":1791539289016741000,"image":"20261009T094326Z_photos/sign_6.jpg","gnss_q":"FLOAT","n_obs":53,"n_views":52,"dmin_m":8.62,"dmed_m":10.796,"err_h_m":null,"tier":"C","method":"legacy","source":"gnss","pos_src":"rt","n_tracks":2,"n_passes":1,"chunk":"20261009T094326Z_c0001","prov":0,"photo_exact":true,"photo_url":"https://drive.google.com/thumbnail?id=16kYKCnN9BNdqd6GWplGSxiyILJK8zAQP&sz=w1200","photo_view":"https://drive.google.com/file/d/16kYKCnN9BNdqd6GWplGSxiyILJK8zAQP/view","label_stats":{"7.4":{"detections":84,"mean_conf":0.848,"max_conf":0.929}},"alt":571.16,"session":"2026-10-09_20261009T094326Z","kind":"sign"}},{"type":"Feature","geometry":{"type":"Point","coordinates":[44.7140183,41.721252]},"properties":{"pole_id":7,"labels":["7.4"],"track_ids":[8,10],"conf":0.936,"n_frames":158,"first_ts":1791539288716770000,"last_ts":1791539295282799000,"image":"20261009T094326Z_photos/sign_7.jpg","gnss_q":"FLOAT","n_obs":158,"n_views":158,"dmin_m":5.335,"dmed_m":8.021,"err_h_m":null,"tier":"C","method":"legacy","source":"gnss","pos_src":"rt","n_tracks":2,"n_passes":1,"chunk":"20261009T094326Z_c0001","prov":0,"photo_exact":true,"photo_url":"https://drive.google.com/thumbnail?id=15AC7J329p9b2GyxUYRZJJHIaysmuvU5c&sz=w1200","photo_view":"https://drive.google.com/file/d/15AC7J329p9b2GyxUYRZJJHIaysmuvU5c/view","label_stats":{"7.4":{"detections":271,"mean_conf":0.866,"max_conf":0.963}},"alt":570.69,"session":"2026-10-09_20261009T094326Z","kind":"sign"}},{"type":"Feature","geometry":{"type":"Point","coordinates":[44.714026,41.7211695]},"properties":{"pole_id":8,"labels":["7.4"],"track_ids":[9],"conf":0.963,"n_frames":103,"first_ts":1791539288750113000,"last_ts":1791539292116456000,"image":"20261009T094326Z_photos/sign_8.jpg","gnss_q":"FIX","n_obs":103,"n_views":102,"dmin_m":6.481,"dmed_m":8.866,"err_h_m":null,"tier":"A","method":"legacy","source":"gnss","pos_src":"rt","n_tracks":1,"n_passes":1,"chunk":"20261009T094326Z_c0001","prov":0,"photo_exact":true,"photo_url":"https://drive.google.com/thumbnail?id=1SY0xIdARljbO2fNJdhWU9WjIl_-XiUhc&sz=w1200","photo_view":"https://drive.google.com/file/d/1SY0xIdARljbO2fNJdhWU9WjIl_-XiUhc/view","label_stats":{"7.4":{"detections":174,"mean_conf":0.856,"max_conf":0.963}},"alt":570.51,"session":"2026-10-09_20261009T094326Z","kind":"sign"}},{"type":"Feature","geometry":{"type":"Point","coordinates":[44.71402,41.7212518]},"properties":{"pole_id":9,"labels":["5.28"],"track_ids":[11],"conf":0.658,"n_frames":20,"first_ts":1791539294082923000,"last_ts":1791539295316140000,"image":"20261009T094326Z_photos/sign_9.jpg","gnss_q":"FLOAT","n_obs":20,"n_views":20,"dmin_m":5.009,"dmed_m":5.101,"err_h_m":null,"tier":"C","method":"legacy","source":"gnss","pos_src":"rt","n_tracks":1,"n_passes":1,"chunk":"20261009T094326Z_c0001","prov":0,"photo_exact":true,"photo_url":"https://drive.google.com/thumbnail?id=1X1slSF4stYydFgXke4QUvptfYw162w9m&sz=w1200","photo_view":"https://drive.google.com/file/d/1X1slSF4stYydFgXke4QUvptfYw162w9m/view","label_stats":{"5.28":{"detections":20,"mean_conf":0.496,"max_conf":0.658}},"alt":570.18,"session":"2026-10-09_20261009T094326Z","kind":"sign"}},{"type":"Feature","geometry":{"type":"Point","coordinates":[44.7132966,41.7210656]},"properties":{"pole_id":10,"labels":["3.1"],"track_ids":[21],"conf":0.579,"n_frames":3,"first_ts":1791539363408773000,"last_ts":1791539363675396000,"image":"20261009T094326Z_photos/sign_10.jpg","gnss_q":"FLOAT","n_obs":3,"n_views":3,"dmin_m":10.35,"dmed_m":11.26,"err_h_m":null,"tier":"C","method":"legacy","source":"gnss","pos_src":"rt","n_tracks":1,"n_passes":1,"chunk":"20261009T094326Z_c0001","prov":0,"photo_exact":true,"photo_url":"https://drive.google.com/thumbnail?id=1BT7i-BOJGlAOrxG0fNg7-NzNDCgHJxgM&sz=w1200","photo_view":"https://drive.google.com/file/d/1BT7i-BOJGlAOrxG0fNg7-NzNDCgHJxgM/view","label_stats":{"3.1":{"detections":3,"mean_conf":0.501,"max_conf":0.579}},"alt":572.87,"session":"2026-10-09_20261009T094326Z","kind":"sign"}},{"type":"Feature","geometry":{"type":"Point","coordinates":[44.713144,41.7207396]},"properties":{"pole_id":11,"labels":["2.1"],"track_ids":[25],"conf":0.69,"n_frames":4,"first_ts":1791539373474266000,"last_ts":1791539373674233000,"image":"20261009T094326Z_photos/sign_11.jpg","gnss_q":"FLOAT","n_obs":4,"n_views":4,"dmin_m":9.536,"dmed_m":10.026,"err_h_m":null,"tier":"C","method":"legacy","source":"gnss","pos_src":"rt","n_tracks":1,"n_passes":1,"chunk":"20261009T094326Z_c0001","prov":0,"photo_exact":true,"photo_url":"https://drive.google.com/thumbnail?id=1ciOCZzGRUhQo4wAS8af_-t0eHmxeHgiy&sz=w1200","photo_view":"https://drive.google.com/file/d/1ciOCZzGRUhQo4wAS8af_-t0eHmxeHgiy/view","label_stats":{"2.1":{"detections":4,"mean_conf":0.546,"max_conf":0.69}},"alt":572.07,"session":"2026-10-09_20261009T094326Z","kind":"sign"}},{"type":"Feature","geometry":{"type":"Point","coordinates":[44.7131445,41.7205547]},"properties":{"pole_id":12,"labels":["5.19.1"],"track_ids":[26],"conf":0.83,"n_frames":4,"first_ts":1791539376340593000,"last_ts":1791539376440589000,"image":"20261009T094326Z_photos/sign_12.jpg","gnss_q":"FLOAT","n_obs":4,"n_views":4,"dmin_m":11.732,"dmed_m":14.242,"err_h_m":null,"tier":"C","method":"legacy","source":"gnss","pos_src":"rt","n_tracks":1,"n_passes":1,"chunk":"20261009T094326Z_c0001","prov":0,"photo_exact":true,"photo_url":"https://drive.google.com/thumbnail?id=13QBBxEqcI1_Xw_8QBBDPHqJIpJnsRVbO&sz=w1200","photo_view":"https://drive.google.com/file/d/13QBBxEqcI1_Xw_8QBBDPHqJIpJnsRVbO/view","label_stats":{"5.19.1":{"detections":4,"mean_conf":0.652,"max_conf":0.83}},"alt":572.5,"session":"2026-10-09_20261009T094326Z","kind":"sign"}},{"type":"Feature","geometry":{"type":"Point","coordinates":[44.7131123,41.7205023]},"properties":{"pole_id":13,"labels":["7.4","4.1.6"],"track_ids":[27],"conf":0.745,"n_frames":50,"first_ts":1791539377207167000,"last_ts":1791539380106833000,"image":"20261009T094326Z_photos/sign_13.jpg","gnss_q":"FLOAT","n_obs":50,"n_views":50,"dmin_m":7.462,"dmed_m":11.06,"err_h_m":null,"tier":"C","method":"legacy","source":"gnss","pos_src":"rt","n_tracks":1,"n_passes":1,"chunk":"20261009T094326Z_c0001","prov":0,"photo_exact":true,"photo_url":"https://drive.google.com/thumbnail?id=1SBkGCuz-P1_lbMTDGEmXHXhPFLxnuVIE&sz=w1200","photo_view":"https://drive.google.com/file/d/1SBkGCuz-P1_lbMTDGEmXHXhPFLxnuVIE/view","label_stats":{"4.1.6":{"detections":19,"mean_conf":0.519,"max_conf":0.751},"7.4":{"detections":27,"mean_conf":0.559,"max_conf":0.745}},"alt":574.49,"session":"2026-10-09_20261009T094326Z","kind":"sign"}},{"type":"Feature","geometry":{"type":"Point","coordinates":[44.713113,41.7205027]},"properties":{"pole_id":14,"labels":["5.19.1"],"track_ids":[28],"conf":0.921,"n_frames":62,"first_ts":1791539377207167000,"last_ts":1791539380106833000,"image":"20261009T094326Z_photos/sign_14.jpg","gnss_q":"FLOAT","n_obs":62,"n_views":62,"dmin_m":5.95,"dmed_m":9.752,"err_h_m":null,"tier":"C","method":"legacy","source":"gnss","pos_src":"rt","n_tracks":1,"n_passes":1,"chunk":"20261009T094326Z_c0001","prov":0,"photo_exact":true,"photo_url":"https://drive.google.com/thumbnail?id=1Xcv7GY16tKGDkvU_AXwAAsauqYneUHES&sz=w1200","photo_view":"https://drive.google.com/file/d/1Xcv7GY16tKGDkvU_AXwAAsauqYneUHES/view","label_stats":{"5.19.1":{"detections":94,"mean_conf":0.879,"max_conf":0.928}},"alt":573.61,"session":"2026-10-09_20261009T094326Z","kind":"sign"}},{"type":"Feature","geometry":{"type":"Point","coordinates":[44.7132406,41.7204885]},"properties":{"pole_id":15,"labels":["5.19.1"],"track_ids":[29],"conf":0.845,"n_frames":4,"first_ts":1791539377507132000,"last_ts":1791539377607129000,"image":"20261009T094326Z_photos/sign_15.jpg","gnss_q":"FLOAT","n_obs":4,"n_views":4,"dmin_m":13.14,"dmed_m":13.513,"err_h_m":null,"tier":"C","method":"legacy","source":"gnss","pos_src":"rt","n_tracks":1,"n_passes":1,"chunk":"20261009T094326Z_c0001","prov":0,"photo_exact":true,"photo_url":"https://drive.google.com/thumbnail?id=1sRnOMcVa5DA-eKL2vHbTwKmGCpvttPPh&sz=w1200","photo_view":"https://drive.google.com/file/d/1sRnOMcVa5DA-eKL2vHbTwKmGCpvttPPh/view","label_stats":{"5.19.1":{"detections":6,"mean_conf":0.74,"max_conf":0.901}},"alt":573.04,"session":"2026-10-09_20261009T094326Z","kind":"sign"}},{"type":"Feature","geometry":{"type":"Point","coordinates":[44.7131112,41.7205013]},"properties":{"pole_id":16,"labels":["2.3"],"track_ids":[30],"conf":0.953,"n_frames":37,"first_ts":1791539378007061000,"last_ts":1791539379373569000,"image":"20261009T094326Z_photos/sign_16.jpg","gnss_q":"FLOAT","n_obs":37,"n_views":37,"dmin_m":6.833,"dmed_m":9.311,"err_h_m":null,"tier":"C","method":"legacy","source":"gnss","pos_src":"rt","n_tracks":1,"n_passes":1,"chunk":"20261009T094326Z_c0001","prov":0,"photo_exact":true,"photo_url":"https://drive.google.com/thumbnail?id=1poVLYhED9xQ--SRM3Z0yXX0xjMHLOZ11&sz=w1200","photo_view":"https://drive.google.com/file/d/1poVLYhED9xQ--SRM3Z0yXX0xjMHLOZ11/view","label_stats":{"2.3":{"detections":37,"mean_conf":0.927,"max_conf":0.953}},"alt":575.26,"session":"2026-10-09_20261009T094326Z","kind":"sign"}},{"type":"Feature","geometry":{"type":"Point","coordinates":[44.7132631,41.7204385]},"properties":{"pole_id":17,"labels":["5.19.1"],"track_ids":[31,107],"conf":0.928,"n_frames":58,"first_ts":1791539378440364000,"last_ts":1791539507691031000,"image":"20261009T094326Z_photos/sign_17.jpg","gnss_q":"FLOAT","n_obs":58,"n_views":58,"dmin_m":11.62,"dmed_m":13.132,"err_h_m":null,"tier":"C","method":"legacy","source":"gnss","pos_src":"rt","n_tracks":2,"n_passes":2,"chunk":"20261009T094326Z_c0001","prov":0,"photo_exact":true,"photo_url":"https://drive.google.com/thumbnail?id=1X-33vNu_bDr1gGYjdvYzhU-FhCvZfsuv&sz=w1200","photo_view":"https://drive.google.com/file/d/1X-33vNu_bDr1gGYjdvYzhU-FhCvZfsuv/view","label_stats":{"5.19.1":{"detections":231,"mean_conf":0.892,"max_conf":0.942}},"alt":574.08,"session":"2026-10-09_20261009T094326Z","kind":"sign"}},{"type":"Feature","geometry":{"type":"Point","coordinates":[44.713066,41.720473]},"properties":{"pole_id":18,"labels":["Manqanis_gadayvana"],"track_ids":[32],"conf":0.674,"n_frames":3,"first_ts":1791539379240258000,"last_ts":1791539379406911000,"image":"20261009T094326Z_photos/sign_18.jpg","gnss_q":"FLOAT","n_obs":3,"n_views":3,"dmin_m":11.046,"dmed_m":11.166,"err_h_m":null,"tier":"C","method":"legacy","source":"gnss","pos_src":"rt","n_tracks":1,"n_passes":1,"chunk":"20261009T094326Z_c0001","prov":0,"photo_exact":true,"photo_url":"https://drive.google.com/thumbnail?id=1vT5bZYr2mYZw5kYUKlSHBVjHmsGi_yYu&sz=w1200","photo_view":"https://drive.google.com/file/d/1vT5bZYr2mYZw5kYUKlSHBVjHmsGi_yYu/view","label_stats":{"Manqanis_gadayvana":{"detections":3,"mean_conf":0.533,"max_conf":0.674}},"alt":573.57,"session":"2026-10-09_20261009T094326Z","kind":"sign"}},{"type":"Feature","geometry":{"type":"Point","coordinates":[44.7119728,41.7205681]},"properties":{"pole_id":19,"labels":["5.19.1"],"track_ids":[35],"conf":0.942,"n_frames":25,"first_ts":1791539395038386000,"last_ts":1791539395838304000,"image":"20261009T094326Z_photos/sign_19.jpg","gnss_q":"FLOAT","n_obs":25,"n_views":25,"dmin_m":7.792,"dmed_m":12.001,"err_h_m":null,"tier":"C","method":"legacy","source":"gnss","pos_src":"rt","n_tracks":1,"n_passes":1,"chunk":"20261009T094326Z_c0001","prov":0,"photo_exact":true,"photo_url":"https://drive.google.com/thumbnail?id=1jQ78woBsiolWgziO-MpR-WHUccw0JCsS&sz=w1200","photo_view":"https://drive.google.com/file/d/1jQ78woBsiolWgziO-MpR-WHUccw0JCsS/view","label_stats":{"5.19.1":{"detections":25,"mean_conf":0.915,"max_conf":0.942}},"alt":576.66,"session":"2026-10-09_20261009T094326Z","kind":"sign"}},{"type":"Feature","geometry":{"type":"Point","coordinates":[44.7118346,41.7204445]},"properties":{"pole_id":20,"labels":["5.19.1"],"track_ids":[36],"conf":0.903,"n_frames":15,"first_ts":1791539396071612000,"last_ts":1791539396538200000,"image":"20261009T094326Z_photos/sign_20.jpg","gnss_q":"FLOAT","n_obs":15,"n_views":15,"dmin_m":11.952,"dmed_m":13.092,"err_h_m":null,"tier":"C","method":"legacy","source":"gnss","pos_src":"rt","n_tracks":1,"n_passes":1,"chunk":"20261009T094326Z_c0001","prov":0,"photo_exact":true,"photo_url":"https://drive.google.com/thumbnail?id=1rRjoEomj2ihE1J4N1IdIpEtAdkFgUH0Q&sz=w1200","photo_view":"https://drive.google.com/file/d/1rRjoEomj2ihE1J4N1IdIpEtAdkFgUH0Q/view","label_stats":{"5.19.1":{"detections":15,"mean_conf":0.816,"max_conf":0.903}},"alt":575.49,"session":"2026-10-09_20261009T094326Z","kind":"sign"}},{"type":"Feature","geometry":{"type":"Point","coordinates":[44.711557,41.7206108]},"properties":{"pole_id":21,"labels":["3.27"],"track_ids":[39],"conf":0.932,"n_frames":31,"first_ts":1791539398571310000,"last_ts":1791539399537853000,"image":"20261009T094326Z_photos/sign_21.jpg","gnss_q":"FLOAT","n_obs":31,"n_views":30,"dmin_m":7.151,"dmed_m":10.329,"err_h_m":null,"tier":"C","method":"legacy","source":"gnss","pos_src":"rt","n_tracks":1,"n_passes":1,"chunk":"20261009T094326Z_c0001","prov":0,"photo_exact":true,"photo_url":"https://drive.google.com/thumbnail?id=1DHnN2UejxlQAnz8upuD8PZk735yA_wR4&sz=w1200","photo_view":"https://drive.google.com/file/d/1DHnN2UejxlQAnz8upuD8PZk735yA_wR4/view","label_stats":{"3.27":{"detections":31,"mean_conf":0.889,"max_conf":0.932}},"alt":577.74,"session":"2026-10-09_20261009T094326Z","kind":"sign"}},{"type":"Feature","geometry":{"type":"Point","coordinates":[44.7114447,41.7206298]},"properties":{"pole_id":22,"labels":["5.16"],"track_ids":[40],"conf":0.944,"n_frames":22,"first_ts":1791539399937814000,"last_ts":1791539400637707000,"image":"20261009T094326Z_photos/sign_22.jpg","gnss_q":"FLOAT","n_obs":22,"n_views":22,"dmin_m":8.352,"dmed_m":10.926,"err_h_m":null,"tier":"C","method":"legacy","source":"gnss","pos_src":"rt","n_tracks":1,"n_passes":1,"chunk":"20261009T094326Z_c0001","prov":0,"photo_exact":true,"photo_url":"https://drive.google.com/thumbnail?id=1A8A4v3X4hISIBds1k2INlv0ddKylVOHn&sz=w1200","photo_view":"https://drive.google.com/file/d/1A8A4v3X4hISIBds1k2INlv0ddKylVOHn/view","label_stats":{"5.16":{"detections":22,"mean_conf":0.924,"max_conf":0.944}},"alt":578.65,"session":"2026-10-09_20261009T094326Z","kind":"sign"}},{"type":"Feature","geometry":{"type":"Point","coordinates":[44.7113452,41.7206422]},"properties":{"pole_id":23,"labels":["3.27"],"track_ids":[41],"conf":0.948,"n_frames":32,"first_ts":1791539400671048000,"last_ts":1791539401804244000,"image":"20261009T094326Z_photos/sign_23.jpg","gnss_q":"FLOAT","n_obs":32,"n_views":31,"dmin_m":8.071,"dmed_m":11.615,"err_h_m":null,"tier":"C","method":"legacy","source":"gnss","pos_src":"rt","n_tracks":1,"n_passes":1,"chunk":"20261009T094326Z_c0001","prov":0,"photo_exact":true,"photo_url":"https://drive.google.com/thumbnail?id=15CCOmHPsZhyCua3KtVQ8fhTeZyBuh4an&sz=w1200","photo_view":"https://drive.google.com/file/d/15CCOmHPsZhyCua3KtVQ8fhTeZyBuh4an/view","label_stats":{"3.27":{"detections":31,"mean_conf":0.913,"max_conf":0.948}},"alt":577.93,"session":"2026-10-09_20261009T094326Z","kind":"sign"}},{"type":"Feature","geometry":{"type":"Point","coordinates":[44.710718,41.7207008]},"properties":{"pole_id":24,"labels":["8.5.4"],"track_ids":[42],"conf":0.751,"n_frames":5,"first_ts":1791539408636747000,"last_ts":1791539408936710000,"image":"20261009T094326Z_photos/sign_24.jpg","gnss_q":"FLOAT","n_obs":5,"n_views":5,"dmin_m":12.788,"dmed_m":13.37,"err_h_m":null,"tier":"C","method":"legacy","source":"gnss","pos_src":"rt","n_tracks":1,"n_passes":1,"chunk":"20261009T094326Z_c0001","prov":0,"photo_exact":true,"photo_url":"https://drive.google.com/thumbnail?id=1o_bbwZYzcKx6mlZy82Wru3JTJgzJRCqh&sz=w1200","photo_view":"https://drive.google.com/file/d/1o_bbwZYzcKx6mlZy82Wru3JTJgzJRCqh/view","label_stats":{"8.5.4":{"detections":4,"mean_conf":0.564,"max_conf":0.751}},"alt":579.88,"session":"2026-10-09_20261009T094326Z","kind":"sign"}},{"type":"Feature","geometry":{"type":"Point","coordinates":[44.7107256,41.7206971]},"properties":{"pole_id":25,"labels":["7.4"],"track_ids":[43],"conf":0.892,"n_frames":31,"first_ts":1791539408636747000,"last_ts":1791539409669973000,"image":"20261009T094326Z_photos/sign_25.jpg","gnss_q":"FLOAT","n_obs":31,"n_views":31,"dmin_m":8.062,"dmed_m":10.897,"err_h_m":null,"tier":"C","method":"legacy","source":"gnss","pos_src":"rt","n_tracks":1,"n_passes":1,"chunk":"20261009T094326Z_c0001","prov":0,"photo_exact":true,"photo_url":"https://drive.google.com/thumbnail?id=13CacbPMMUGva_AAGgjtfV7aPNGv8ktwE&sz=w1200","photo_view":"https://drive.google.com/file/d/13CacbPMMUGva_AAGgjtfV7aPNGv8ktwE/view","label_stats":{"7.4":{"detections":31,"mean_conf":0.784,"max_conf":0.892}},"alt":581.64,"session":"2026-10-09_20261009T094326Z","kind":"sign"}},{"type":"Feature","geometry":{"type":"Point","coordinates":[44.7107529,41.7206929]},"properties":{"pole_id":26,"labels":["1.21.3"],"track_ids":[44],"conf":0.776,"n_frames":15,"first_ts":1791539408636747000,"last_ts":1791539409270013000,"image":"20261009T094326Z_photos/sign_26.jpg","gnss_q":"FLOAT","n_obs":15,"n_views":14,"dmin_m":7.874,"dmed_m":10.182,"err_h_m":null,"tier":"C","method":"legacy","source":"gnss","pos_src":"rt","n_tracks":1,"n_passes":1,"chunk":"20261009T094326Z_c0001","prov":0,"photo_exact":true,"photo_url":"https://drive.google.com/thumbnail?id=12hbv7IBJrEk9dRr2VpOmX0spQndDYpvS&sz=w1200","photo_view":"https://drive.google.com/file/d/12hbv7IBJrEk9dRr2VpOmX0spQndDYpvS/view","label_stats":{"1.21.3":{"detections":8,"mean_conf":0.585,"max_conf":0.776}},"alt":578.71,"session":"2026-10-09_20261009T094326Z","kind":"sign"}},{"type":"Feature","geometry":{"type":"Point","coordinates":[44.71075,41.7206941]},"properties":{"pole_id":27,"labels":["1.21.1"],"track_ids":[45],"conf":0.77,"n_frames":7,"first_ts":1791539408636747000,"last_ts":1791539409036706000,"image":"20261009T094326Z_photos/sign_27.jpg","gnss_q":"FLOAT","n_obs":7,"n_views":7,"dmin_m":9.45,"dmed_m":10.198,"err_h_m":null,"tier":"C","method":"legacy","source":"gnss","pos_src":"rt","n_tracks":1,"n_passes":1,"chunk":"20261009T094326Z_c0001","prov":0,"photo_exact":true,"photo_url":"https://drive.google.com/thumbnail?id=1zQaSEbf3dqGIQk4UMjZKjFi3Oa7gnm84&sz=w1200","photo_view":"https://drive.google.com/file/d/1zQaSEbf3dqGIQk4UMjZKjFi3Oa7gnm84/view","label_stats":{"1.21.1":{"detections":10,"mean_conf":0.63,"max_conf":0.77}},"alt":578.55,"session":"2026-10-09_20261009T094326Z","kind":"sign"}},{"type":"Feature","geometry":{"type":"Point","coordinates":[44.7107556,41.7206909]},"properties":{"pole_id":28,"labels":["1.21.3"],"track_ids":[46],"conf":0.801,"n_frames":5,"first_ts":1791539408870056000,"last_ts":1791539409370009000,"image":"20261009T094326Z_photos/sign_28.jpg","gnss_q":"FLOAT","n_obs":5,"n_views":5,"dmin_m":7.097,"dmed_m":7.587,"err_h_m":null,"tier":"C","method":"legacy","source":"gnss","pos_src":"rt","n_tracks":1,"n_passes":1,"chunk":"20261009T094326Z_c0001","prov":0,"photo_exact":true,"photo_url":"https://drive.google.com/thumbnail?id=1dRjyyQgnrRt251NfNsjYtj_dmIV5OSeT&sz=w1200","photo_view":"https://drive.google.com/file/d/1dRjyyQgnrRt251NfNsjYtj_dmIV5OSeT/view","label_stats":{"1.21.3":{"detections":11,"mean_conf":0.61,"max_conf":0.801}},"alt":578.78,"session":"2026-10-09_20261009T094326Z","kind":"sign"}},{"type":"Feature","geometry":{"type":"Point","coordinates":[44.7103316,41.7207201]},"properties":{"pole_id":29,"labels":["7.4"],"track_ids":[48],"conf":0.939,"n_frames":40,"first_ts":1791539412769590000,"last_ts":1791539414069434000,"image":"20261009T094326Z_photos/sign_29.jpg","gnss_q":"FLOAT","n_obs":40,"n_views":40,"dmin_m":7.575,"dmed_m":11.001,"err_h_m":null,"tier":"C","method":"legacy","source":"gnss","pos_src":"rt","n_tracks":1,"n_passes":1,"chunk":"20261009T094326Z_c0001","prov":0,"photo_exact":true,"photo_url":"https://drive.google.com/thumbnail?id=1sLVifaPz_BVzIges_Iq494fcO0NhH3Su&sz=w1200","photo_view":"https://drive.google.com/file/d/1sLVifaPz_BVzIges_Iq494fcO0NhH3Su/view","label_stats":{"7.4":{"detections":40,"mean_conf":0.868,"max_conf":0.939}},"alt":583.41,"session":"2026-10-09_20261009T094326Z","kind":"sign"}},{"type":"Feature","geometry":{"type":"Point","coordinates":[44.709795,41.7207752]},"properties":{"pole_id":30,"labels":["7.4"],"track_ids":[52],"conf":0.847,"n_frames":21,"first_ts":1791539419802080000,"last_ts":1791539420568629000,"image":"20261009T094326Z_photos/sign_30.jpg","gnss_q":"FLOAT","n_obs":21,"n_views":20,"dmin_m":10.397,"dmed_m":12.163,"err_h_m":null,"tier":"C","method":"legacy","source":"gnss","pos_src":"rt","n_tracks":1,"n_passes":1,"chunk":"20261009T094326Z_c0001","prov":0,"photo_exact":true,"photo_url":"https://drive.google.com/thumbnail?id=1jTZputBk5P56J_zjOTViXyz4_TEct5Fl&sz=w1200","photo_view":"https://drive.google.com/file/d/1jTZputBk5P56J_zjOTViXyz4_TEct5Fl/view","label_stats":{"7.4":{"detections":20,"mean_conf":0.724,"max_conf":0.847}},"alt":585.03,"session":"2026-10-09_20261009T094326Z","kind":"sign"}},{"type":"Feature","geometry":{"type":"Point","coordinates":[44.7091061,41.7208412]},"properties":{"pole_id":31,"labels":["1.26"],"track_ids":[55],"conf":0.825,"n_frames":16,"first_ts":1791539428500996000,"last_ts":1791539429034264000,"image":"20261009T094326Z_photos/sign_31.jpg","gnss_q":"FLOAT","n_obs":16,"n_views":12,"dmin_m":9.773,"dmed_m":12.146,"err_h_m":null,"tier":"C","method":"legacy","source":"gnss","pos_src":"rt","n_tracks":1,"n_passes":1,"chunk":"20261009T094326Z_c0001","prov":0,"photo_exact":true,"photo_url":"https://drive.google.com/thumbnail?id=1tXC65BJGSQqt4ZZGLKCjgM1RQ3Hk8mWN&sz=w1200","photo_view":"https://drive.google.com/file/d/1tXC65BJGSQqt4ZZGLKCjgM1RQ3Hk8mWN/view","label_stats":{"1.26":{"detections":8,"mean_conf":0.666,"max_conf":0.825}},"alt":589.18,"session":"2026-10-09_20261009T094326Z","kind":"sign"}},{"type":"Feature","geometry":{"type":"Point","coordinates":[44.7091087,41.720841]},"properties":{"pole_id":32,"labels":["3.20"],"track_ids":[56],"conf":0.935,"n_frames":19,"first_ts":1791539428500996000,"last_ts":1791539429100921000,"image":"20261009T094326Z_photos/sign_32.jpg","gnss_q":"FLOAT","n_obs":19,"n_views":19,"dmin_m":9.377,"dmed_m":11.189,"err_h_m":null,"tier":"C","method":"legacy","source":"gnss","pos_src":"rt","n_tracks":1,"n_passes":1,"chunk":"20261009T094326Z_c0001","prov":0,"photo_exact":true,"photo_url":"https://drive.google.com/thumbnail?id=1hpAHj9j73sMhfq4xr8yPi-K7EYz_nrKa&sz=w1200","photo_view":"https://drive.google.com/file/d/1hpAHj9j73sMhfq4xr8yPi-K7EYz_nrKa/view","label_stats":{"3.20":{"detections":17,"mean_conf":0.823,"max_conf":0.935}},"alt":588.7,"session":"2026-10-09_20261009T094326Z","kind":"sign"}},{"type":"Feature","geometry":{"type":"Point","coordinates":[44.7091107,41.7208405]},"properties":{"pole_id":33,"labels":["3.24_40"],"track_ids":[57],"conf":0.932,"n_frames":17,"first_ts":1791539428600993000,"last_ts":1791539429100921000,"image":"20261009T094326Z_photos/sign_33.jpg","gnss_q":"FLOAT","n_obs":17,"n_views":16,"dmin_m":4.523,"dmed_m":10.458,"err_h_m":null,"tier":"C","method":"legacy","source":"gnss","pos_src":"rt","n_tracks":1,"n_passes":1,"chunk":"20261009T094326Z_c0001","prov":0,"photo_exact":true,"photo_url":"https://drive.google.com/thumbnail?id=1e02A9wI-WhbVyOCQS1afWpKoKcqkwxJI&sz=w1200","photo_view":"https://drive.google.com/file/d/1e02A9wI-WhbVyOCQS1afWpKoKcqkwxJI/view","label_stats":{"3.24_40":{"detections":15,"mean_conf":0.886,"max_conf":0.932}},"alt":588.07,"session":"2026-10-09_20261009T094326Z","kind":"sign"}},{"type":"Feature","geometry":{"type":"Point","coordinates":[44.7090444,41.7206927]},"properties":{"pole_id":34,"labels":["5.19.1"],"track_ids":[58,79],"conf":0.933,"n_frames":51,"first_ts":1791539428634308000,"last_ts":1791539458230653000,"image":"20261009T094326Z_photos/sign_34.jpg","gnss_q":"FLOAT","n_obs":51,"n_views":51,"dmin_m":7.857,"dmed_m":12.692,"err_h_m":null,"tier":"C","method":"legacy","source":"gnss","pos_src":"rt","n_tracks":2,"n_passes":1,"chunk":"20261009T094326Z_c0001","prov":0,"photo_exact":true,"photo_url":"https://drive.google.com/thumbnail?id=1v1VdwUsurQPTXM9K90ZkkmrqzwFpJd2J&sz=w1200","photo_view":"https://drive.google.com/file/d/1v1VdwUsurQPTXM9K90ZkkmrqzwFpJd2J/view","label_stats":{"5.19.1":{"detections":51,"mean_conf":0.904,"max_conf":0.933}},"alt":590.03,"session":"2026-10-09_20261009T094326Z","kind":"sign"}},{"type":"Feature","geometry":{"type":"Point","coordinates":[44.7090487,41.7208436]},"properties":{"pole_id":35,"labels":["7.4","3.24_40"],"track_ids":[59],"conf":0.919,"n_frames":33,"first_ts":1791539428900954000,"last_ts":1791539430334107000,"image":"20261009T094326Z_photos/sign_35.jpg","gnss_q":"FLOAT","n_obs":33,"n_views":33,"dmin_m":9.245,"dmed_m":11.14,"err_h_m":null,"tier":"C","method":"legacy","source":"gnss","pos_src":"rt","n_tracks":1,"n_passes":1,"chunk":"20261009T094326Z_c0001","prov":0,"photo_exact":true,"photo_url":"https://drive.google.com/thumbnail?id=1Z97XwoI1MevPLFFlcqv8oaW06jE1XN4M&sz=w1200","photo_view":"https://drive.google.com/file/d/1Z97XwoI1MevPLFFlcqv8oaW06jE1XN4M/view","label_stats":{"3.24_40":{"detections":29,"mean_conf":0.866,"max_conf":0.932},"7.4":{"detections":26,"mean_conf":0.859,"max_conf":0.919}},"alt":589.8,"session":"2026-10-09_20261009T094326Z","kind":"sign"}},{"type":"Feature","geometry":{"type":"Point","coordinates":[44.7089814,41.7208559]},"properties":{"pole_id":36,"labels":["1.24"],"track_ids":[60],"conf":0.942,"n_frames":27,"first_ts":1791539429667527000,"last_ts":1791539430367447000,"image":"20261009T094326Z_photos/sign_36.jpg","gnss_q":"FLOAT","n_obs":27,"n_views":22,"dmin_m":10.153,"dmed_m":13.558,"err_h_m":null,"tier":"C","method":"legacy","source":"gnss","pos_src":"rt","n_tracks":1,"n_passes":1,"chunk":"20261009T094326Z_c0001","prov":0,"photo_exact":true,"photo_url":"https://drive.google.com/thumbnail?id=1d6KIHy85I3iA7fGDP4wvTz5T5fA2g3Bp&sz=w1200","photo_view":"https://drive.google.com/file/d/1d6KIHy85I3iA7fGDP4wvTz5T5fA2g3Bp/view","label_stats":{"1.24":{"detections":22,"mean_conf":0.831,"max_conf":0.942}},"alt":589.92,"session":"2026-10-09_20261009T094326Z","kind":"sign"}},{"type":"Feature","geometry":{"type":"Point","coordinates":[44.7089817,41.7208565]},"properties":{"pole_id":37,"labels":["3.24_40"],"track_ids":[61],"conf":0.922,"n_frames":15,"first_ts":1791539429667527000,"last_ts":1791539430134141000,"image":"20261009T094326Z_photos/sign_37.jpg","gnss_q":"FLOAT","n_obs":15,"n_views":15,"dmin_m":11.117,"dmed_m":13.092,"err_h_m":null,"tier":"C","method":"legacy","source":"gnss","pos_src":"rt","n_tracks":1,"n_passes":1,"chunk":"20261009T094326Z_c0001","prov":0,"photo_exact":true,"photo_url":"https://drive.google.com/thumbnail?id=1_BGWHKnmSVmJHsopN-l26NzoELVaAllk&sz=w1200","photo_view":"https://drive.google.com/file/d/1_BGWHKnmSVmJHsopN-l26NzoELVaAllk/view","label_stats":{"3.24_40":{"detections":16,"mean_conf":0.859,"max_conf":0.922}},"alt":589.0,"session":"2026-10-09_20261009T094326Z","kind":"sign"}},{"type":"Feature","geometry":{"type":"Point","coordinates":[44.7087296,41.7208764]},"properties":{"pole_id":38,"labels":["1.26"],"track_ids":[62],"conf":0.884,"n_frames":18,"first_ts":1791539432400524000,"last_ts":1791539432967134000,"image":"20261009T094326Z_photos/sign_38.jpg","gnss_q":"FLOAT","n_obs":18,"n_views":17,"dmin_m":9.809,"dmed_m":12.618,"err_h_m":null,"tier":"C","method":"legacy","source":"gnss","pos_src":"rt","n_tracks":1,"n_passes":1,"chunk":"20261009T094326Z_c0001","prov":0,"photo_exact":true,"photo_url":"https://drive.google.com/thumbnail?id=1ductxsc8dAUnqV1bd9l5B3eRJOYyFP3e&sz=w1200","photo_view":"https://drive.google.com/file/d/1ductxsc8dAUnqV1bd9l5B3eRJOYyFP3e/view","label_stats":{"1.26":{"detections":17,"mean_conf":0.77,"max_conf":0.884}},"alt":590.01,"session":"2026-10-09_20261009T094326Z","kind":"sign"}},{"type":"Feature","geometry":{"type":"Point","coordinates":[44.7087144,41.7208734]},"properties":{"pole_id":39,"labels":["7.4"],"track_ids":[63],"conf":0.899,"n_frames":22,"first_ts":1791539432467179000,"last_ts":1791539433167098000,"image":"20261009T094326Z_photos/sign_39.jpg","gnss_q":"DGNSS","n_obs":22,"n_views":22,"dmin_m":9.673,"dmed_m":11.857,"err_h_m":null,"tier":"C","method":"legacy","source":"gnss","pos_src":"rt","n_tracks":1,"n_passes":1,"chunk":"20261009T094326Z_c0001","prov":0,"photo_exact":true,"photo_url":"https://drive.google.com/thumbnail?id=1ZhlJEN0drd15U_5bBvBO_e6PYdIP6WRq&sz=w1200","photo_view":"https://drive.google.com/file/d/1ZhlJEN0drd15U_5bBvBO_e6PYdIP6WRq/view","label_stats":{"7.4":{"detections":22,"mean_conf":0.814,"max_conf":0.899}},"alt":591.04,"session":"2026-10-09_20261009T094326Z","kind":"sign"}},{"type":"Feature","geometry":{"type":"Point","coordinates":[44.7085105,41.7206773]},"properties":{"pole_id":40,"labels":["7.4"],"track_ids":[65,66,67,68,71],"conf":0.749,"n_frames":105,"first_ts":1791539438999702000,"last_ts":1791539443499144000,"image":"20261009T094326Z_photos/sign_40.jpg","gnss_q":"FLOAT","n_obs":105,"n_views":101,"dmin_m":8.201,"dmed_m":9.066,"err_h_m":null,"tier":"C","method":"legacy","source":"gnss","pos_src":"rt","n_tracks":5,"n_passes":1,"chunk":"20261009T094326Z_c0001","prov":0,"photo_exact":true,"photo_url":"https://drive.google.com/thumbnail?id=1eXDj5oog4lksXBQmGpnPDQWgJd7qnTj-&sz=w1200","photo_view":"https://drive.google.com/file/d/1eXDj5oog4lksXBQmGpnPDQWgJd7qnTj-/view","label_stats":{"7.4":{"detections":101,"mean_conf":0.591,"max_conf":0.749}},"alt":589.89,"session":"2026-10-09_20261009T094326Z","kind":"sign"}},{"type":"Feature","geometry":{"type":"Point","coordinates":[44.7085491,41.7206822]},"properties":{"pole_id":41,"labels":["7.4"],"track_ids":[69,70],"conf":0.683,"n_frames":4,"first_ts":1791539441166109000,"last_ts":1791539443165873000,"image":"20261009T094326Z_photos/sign_41.jpg","gnss_q":"FLOAT","n_obs":4,"n_views":4,"dmin_m":9.016,"dmed_m":9.117,"err_h_m":null,"tier":"C","method":"legacy","source":"gnss","pos_src":"rt","n_tracks":2,"n_passes":1,"chunk":"20261009T094326Z_c0001","prov":0,"photo_exact":true,"photo_url":"https://drive.google.com/thumbnail?id=1DbWQX_PWxeQg4mS09RTXZAzRo_Zn9vs-&sz=w1200","photo_view":"https://drive.google.com/file/d/1DbWQX_PWxeQg4mS09RTXZAzRo_Zn9vs-/view","label_stats":{"7.4":{"detections":60,"mean_conf":0.606,"max_conf":0.749}},"alt":591.16,"session":"2026-10-09_20261009T094326Z","kind":"sign"}},{"type":"Feature","geometry":{"type":"Point","coordinates":[44.7085949,41.7207304]},"properties":{"pole_id":42,"labels":["Manqanis_gadayvana"],"track_ids":[75,77,78],"conf":0.677,"n_frames":31,"first_ts":1791539447998588000,"last_ts":1791539452664680000,"image":"20261009T094326Z_photos/sign_42.jpg","gnss_q":"FLOAT","n_obs":31,"n_views":31,"dmin_m":4.811,"dmed_m":6.054,"err_h_m":null,"tier":"C","method":"legacy","source":"gnss","pos_src":"rt","n_tracks":3,"n_passes":1,"chunk":"20261009T094326Z_c0001","prov":0,"photo_exact":true,"photo_url":"https://drive.google.com/thumbnail?id=1BrPx6Vdk9RUhN0Kc_xIBE5xL40HgpL5g&sz=w1200","photo_view":"https://drive.google.com/file/d/1BrPx6Vdk9RUhN0Kc_xIBE5xL40HgpL5g/view","label_stats":{"Manqanis_gadayvana":{"detections":23,"mean_conf":0.503,"max_conf":0.677}},"alt":591.57,"session":"2026-10-09_20261009T094326Z","kind":"sign"}},{"type":"Feature","geometry":{"type":"Point","coordinates":[44.7085923,41.7207311]},"properties":{"pole_id":43,"labels":["7.4"],"track_ids":[76],"conf":0.959,"n_frames":135,"first_ts":1791539448131898000,"last_ts":1791539452598025000,"image":"20261009T094326Z_photos/sign_43.jpg","gnss_q":"FLOAT","n_obs":135,"n_views":135,"dmin_m":5.274,"dmed_m":8.714,"err_h_m":null,"tier":"C","method":"legacy","source":"gnss","pos_src":"rt","n_tracks":1,"n_passes":1,"chunk":"20261009T094326Z_c0001","prov":0,"photo_exact":true,"photo_url":"https://drive.google.com/thumbnail?id=102fnalForz3SgRcYhrnmoY2j6qTbSgJV&sz=w1200","photo_view":"https://drive.google.com/file/d/102fnalForz3SgRcYhrnmoY2j6qTbSgJV/view","label_stats":{"7.4":{"detections":135,"mean_conf":0.813,"max_conf":0.959}},"alt":592.89,"session":"2026-10-09_20261009T094326Z","kind":"sign"}},{"type":"Feature","geometry":{"type":"Point","coordinates":[44.7091589,41.7208235]},"properties":{"pole_id":44,"labels":["5.19.1"],"track_ids":[81,83],"conf":0.928,"n_frames":6,"first_ts":1791539458463958000,"last_ts":1791539459330502000,"image":"20261009T094326Z_photos/sign_44.jpg","gnss_q":"FLOAT","n_obs":6,"n_views":6,"dmin_m":11.732,"dmed_m":13.087,"err_h_m":null,"tier":"C","method":"legacy","source":"gnss","pos_src":"rt","n_tracks":2,"n_passes":1,"chunk":"20261009T094326Z_c0001","prov":0,"photo_exact":true,"photo_url":"https://drive.google.com/thumbnail?id=1WXXvDXf80dGjI9WxG6ehKIQXwouxWbb6&sz=w1200","photo_view":"https://drive.google.com/file/d/1WXXvDXf80dGjI9WxG6ehKIQXwouxWbb6/view","label_stats":{"5.19.1":{"detections":4,"mean_conf":0.879,"max_conf":0.928}},"alt":591.25,"session":"2026-10-09_20261009T094326Z","kind":"sign"}},{"type":"Feature","geometry":{"type":"Point","coordinates":[44.7091999,41.720685]},"properties":{"pole_id":45,"labels":["7.20.2"],"track_ids":[82],"conf":0.907,"n_frames":33,"first_ts":1791539458763923000,"last_ts":1791539459830454000,"image":"20261009T094326Z_photos/sign_45.jpg","gnss_q":"FLOAT","n_obs":33,"n_views":33,"dmin_m":7.772,"dmed_m":11.664,"err_h_m":null,"tier":"C","method":"legacy","source":"gnss","pos_src":"rt","n_tracks":1,"n_passes":1,"chunk":"20261009T094326Z_c0001","prov":0,"photo_exact":true,"photo_url":"https://drive.google.com/thumbnail?id=1_owEgtSDYVznCVR-G4OzaNHldxP7mEoH&sz=w1200","photo_view":"https://drive.google.com/file/d/1_owEgtSDYVznCVR-G4OzaNHldxP7mEoH/view","label_stats":{"7.20.2":{"detections":33,"mean_conf":0.786,"max_conf":0.907}},"alt":590.78,"session":"2026-10-09_20261009T094326Z","kind":"sign"}},{"type":"Feature","geometry":{"type":"Point","coordinates":[44.7092037,41.7208273]},"properties":{"pole_id":46,"labels":["5.16"],"track_ids":[84],"conf":0.907,"n_frames":8,"first_ts":1791539459030542000,"last_ts":1791539459263846000,"image":"20261009T094326Z_photos/sign_46.jpg","gnss_q":"FLOAT","n_obs":8,"n_views":8,"dmin_m":13.156,"dmed_m":14.265,"err_h_m":null,"tier":"C","method":"legacy","source":"gnss","pos_src":"rt","n_tracks":1,"n_passes":1,"chunk":"20261009T094326Z_c0001","prov":0,"photo_exact":true,"photo_url":"https://drive.google.com/thumbnail?id=1ugJS_P4CqH35GWIpzWkp3bv_t6PxZkmg&sz=w1200","photo_view":"https://drive.google.com/file/d/1ugJS_P4CqH35GWIpzWkp3bv_t6PxZkmg/view","label_stats":{"5.16":{"detections":8,"mean_conf":0.765,"max_conf":0.907}},"alt":591.55,"session":"2026-10-09_20261009T094326Z","kind":"sign"}},{"type":"Feature","geometry":{"type":"Point","coordinates":[44.709201,41.7206854]},"properties":{"pole_id":47,"labels":["Manqanis_gadayvana"],"track_ids":[85],"conf":0.844,"n_frames":12,"first_ts":1791539459163849000,"last_ts":1791539459797112000,"image":"20261009T094326Z_photos/sign_47.jpg","gnss_q":"FLOAT","n_obs":12,"n_views":12,"dmin_m":7.783,"dmed_m":9.569,"err_h_m":null,"tier":"C","method":"legacy","source":"gnss","pos_src":"rt","n_tracks":1,"n_passes":1,"chunk":"20261009T094326Z_c0001","prov":0,"photo_exact":true,"photo_url":"https://drive.google.com/thumbnail?id=1dMqhIRuKKpmVyVWKEZnqoSPLNilPUCF6&sz=w1200","photo_view":"https://drive.google.com/file/d/1dMqhIRuKKpmVyVWKEZnqoSPLNilPUCF6/view","label_stats":{"Manqanis_gadayvana":{"detections":12,"mean_conf":0.606,"max_conf":0.844}},"alt":589.88,"session":"2026-10-09_20261009T094326Z","kind":"sign"}},{"type":"Feature","geometry":{"type":"Point","coordinates":[44.7095128,41.7206472]},"properties":{"pole_id":48,"labels":["5.16"],"track_ids":[86,87],"conf":0.923,"n_frames":19,"first_ts":1791539461896837000,"last_ts":1791539462496790000,"image":"20261009T094326Z_photos/sign_48.jpg","gnss_q":"FLOAT","n_obs":19,"n_views":18,"dmin_m":9.368,"dmed_m":11.976,"err_h_m":null,"tier":"C","method":"legacy","source":"gnss","pos_src":"rt","n_tracks":2,"n_passes":1,"chunk":"20261009T094326Z_c0001","prov":0,"photo_exact":true,"photo_url":"https://drive.google.com/thumbnail?id=1j5lt7Mr8bAdFJaRFy_J8gFZqx3eM2lcg&sz=w1200","photo_view":"https://drive.google.com/file/d/1j5lt7Mr8bAdFJaRFy_J8gFZqx3eM2lcg/view","label_stats":{"5.16":{"detections":19,"mean_conf":0.831,"max_conf":0.923}},"alt":589.7,"session":"2026-10-09_20261009T094326Z","kind":"sign"}},{"type":"Feature","geometry":{"type":"Point","coordinates":[44.7098548,41.7206341]},"properties":{"pole_id":49,"labels":["7.4"],"track_ids":[88],"conf":0.91,"n_frames":30,"first_ts":1791539464629852000,"last_ts":1791539465596389000,"image":"20261009T094326Z_photos/sign_49.jpg","gnss_q":"FLOAT","n_obs":30,"n_views":30,"dmin_m":8.056,"dmed_m":11.839,"err_h_m":null,"tier":"C","method":"legacy","source":"gnss","pos_src":"rt","n_tracks":1,"n_passes":1,"chunk":"20261009T094326Z_c0001","prov":0,"photo_exact":true,"photo_url":"https://drive.google.com/thumbnail?id=1N8nnMBwLsv0yHcHBgFj-FkN7wyNaGOAa&sz=w1200","photo_view":"https://drive.google.com/file/d/1N8nnMBwLsv0yHcHBgFj-FkN7wyNaGOAa/view","label_stats":{"7.4":{"detections":30,"mean_conf":0.806,"max_conf":0.91}},"alt":588.6,"session":"2026-10-09_20261009T094326Z","kind":"sign"}},{"type":"Feature","geometry":{"type":"Point","coordinates":[44.7103285,41.720598]},"properties":{"pole_id":50,"labels":["7.4"],"track_ids":[89,90],"conf":0.927,"n_frames":23,"first_ts":1791539469062603000,"last_ts":1791539469795860000,"image":"20261009T094326Z_photos/sign_50.jpg","gnss_q":"FLOAT","n_obs":23,"n_views":22,"dmin_m":9.529,"dmed_m":11.859,"err_h_m":null,"tier":"C","method":"legacy","source":"gnss","pos_src":"rt","n_tracks":2,"n_passes":1,"chunk":"20261009T094326Z_c0001","prov":0,"photo_exact":true,"photo_url":"https://drive.google.com/thumbnail?id=1mej8GgkBY9zm09HlnZUy_jUYMwdCX7-w&sz=w1200","photo_view":"https://drive.google.com/file/d/1mej8GgkBY9zm09HlnZUy_jUYMwdCX7-w/view","label_stats":{"7.4":{"detections":23,"mean_conf":0.884,"max_conf":0.927}},"alt":586.9,"session":"2026-10-09_20261009T094326Z","kind":"sign"}},{"type":"Feature","geometry":{"type":"Point","coordinates":[44.7110948,41.7205258]},"properties":{"pole_id":51,"labels":["7.4"],"track_ids":[91],"conf":0.937,"n_frames":22,"first_ts":1791539476328358000,"last_ts":1791539477061617000,"image":"20261009T094326Z_photos/sign_51.jpg","gnss_q":"FLOAT","n_obs":22,"n_views":22,"dmin_m":9.624,"dmed_m":12.221,"err_h_m":null,"tier":"C","method":"legacy","source":"gnss","pos_src":"rt","n_tracks":1,"n_passes":1,"chunk":"20261009T094326Z_c0001","prov":0,"photo_exact":true,"photo_url":"https://drive.google.com/thumbnail?id=1Vkg9zMhQ8HrrKOlMmqd7bJqo2m32Yws9&sz=w1200","photo_view":"https://drive.google.com/file/d/1Vkg9zMhQ8HrrKOlMmqd7bJqo2m32Yws9/view","label_stats":{"7.4":{"detections":21,"mean_conf":0.893,"max_conf":0.937}},"alt":583.1,"session":"2026-10-09_20261009T094326Z","kind":"sign"}},{"type":"Feature","geometry":{"type":"Point","coordinates":[44.7115346,41.7206395]},"properties":{"pole_id":52,"labels":["5.16"],"track_ids":[93],"conf":0.81,"n_frames":4,"first_ts":1791539480761136000,"last_ts":1791539480894446000,"image":"20261009T094326Z_photos/sign_52.jpg","gnss_q":"FLOAT","n_obs":4,"n_views":4,"dmin_m":13.393,"dmed_m":14.624,"err_h_m":null,"tier":"C","method":"legacy","source":"gnss","pos_src":"rt","n_tracks":1,"n_passes":1,"chunk":"20261009T094326Z_c0001","prov":0,"photo_exact":true,"photo_url":"https://drive.google.com/thumbnail?id=1L80NJGrpvvaMieGR2DyVV3JqNn8pKmcl&sz=w1200","photo_view":"https://drive.google.com/file/d/1L80NJGrpvvaMieGR2DyVV3JqNn8pKmcl/view","label_stats":{"5.16":{"detections":4,"mean_conf":0.588,"max_conf":0.81}},"alt":582.5,"session":"2026-10-09_20261009T094326Z","kind":"sign"}},{"type":"Feature","geometry":{"type":"Point","coordinates":[44.711613,41.7204462]},"properties":{"pole_id":53,"labels":["1.17"],"track_ids":[94],"conf":0.871,"n_frames":9,"first_ts":1791539481927664000,"last_ts":1791539482260941000,"image":"20261009T094326Z_photos/sign_53.jpg","gnss_q":"FLOAT","n_obs":9,"n_views":9,"dmin_m":12.73,"dmed_m":13.665,"err_h_m":null,"tier":"C","method":"legacy","source":"gnss","pos_src":"rt","n_tracks":1,"n_passes":1,"chunk":"20261009T094326Z_c0001","prov":0,"photo_exact":true,"photo_url":"https://drive.google.com/thumbnail?id=1D9TirAVkUE9VaJKqPCIKC7jfN0e-RFsl&sz=w1200","photo_view":"https://drive.google.com/file/d/1D9TirAVkUE9VaJKqPCIKC7jfN0e-RFsl/view","label_stats":{"1.17":{"detections":9,"mean_conf":0.699,"max_conf":0.871}},"alt":579.78,"session":"2026-10-09_20261009T094326Z","kind":"sign"}},{"type":"Feature","geometry":{"type":"Point","coordinates":[44.7117347,41.7204571]},"properties":{"pole_id":54,"labels":["3.27"],"track_ids":[95],"conf":0.925,"n_frames":32,"first_ts":1791539482960853000,"last_ts":1791539483994070000,"image":"20261009T094326Z_photos/sign_54.jpg","gnss_q":"FLOAT","n_obs":32,"n_views":32,"dmin_m":8.99,"dmed_m":11.775,"err_h_m":null,"tier":"C","method":"legacy","source":"gnss","pos_src":"rt","n_tracks":1,"n_passes":1,"chunk":"20261009T094326Z_c0001","prov":0,"photo_exact":true,"photo_url":"https://drive.google.com/thumbnail?id=1wt1CXJVY6qwq6nU5GcDZ5fStlXoSOXXy&sz=w1200","photo_view":"https://drive.google.com/file/d/1wt1CXJVY6qwq6nU5GcDZ5fStlXoSOXXy/view","label_stats":{"3.27":{"detections":45,"mean_conf":0.893,"max_conf":0.925}},"alt":580.0,"session":"2026-10-09_20261009T094326Z","kind":"sign"}},{"type":"Feature","geometry":{"type":"Point","coordinates":[44.7117342,41.7204586]},"properties":{"pole_id":55,"labels":["Manqanis_gadayvana"],"track_ids":[96,99],"conf":0.856,"n_frames":23,"first_ts":1791539483027508000,"last_ts":1791539483927389000,"image":"20261009T094326Z_photos/sign_55.jpg","gnss_q":"FLOAT","n_obs":23,"n_views":22,"dmin_m":8.994,"dmed_m":11.068,"err_h_m":null,"tier":"C","method":"legacy","source":"gnss","pos_src":"rt","n_tracks":2,"n_passes":1,"chunk":"20261009T094326Z_c0001","prov":0,"photo_exact":true,"photo_url":"https://drive.google.com/thumbnail?id=15VcAT0LZS1GRbDQs4KGv1KHloh4hYvDM&sz=w1200","photo_view":"https://drive.google.com/file/d/15VcAT0LZS1GRbDQs4KGv1KHloh4hYvDM/view","label_stats":{"Manqanis_gadayvana":{"detections":23,"mean_conf":0.641,"max_conf":0.856}},"alt":579.53,"session":"2026-10-09_20261009T094326Z","kind":"sign"}},{"type":"Feature","geometry":{"type":"Point","coordinates":[44.7117252,41.7204383]},"properties":{"pole_id":56,"labels":["3.27"],"track_ids":[97],"conf":0.899,"n_frames":14,"first_ts":1791539483227499000,"last_ts":1791539483660769000,"image":"20261009T094326Z_photos/sign_56.jpg","gnss_q":"FLOAT","n_obs":14,"n_views":14,"dmin_m":12.053,"dmed_m":12.856,"err_h_m":null,"tier":"C","method":"legacy","source":"gnss","pos_src":"rt","n_tracks":1,"n_passes":1,"chunk":"20261009T094326Z_c0001","prov":0,"photo_exact":true,"photo_url":"https://drive.google.com/thumbnail?id=1bCjysUk38BTbOSDY3gw5Z22_Z9patsjs&sz=w1200","photo_view":"https://drive.google.com/file/d/1bCjysUk38BTbOSDY3gw5Z22_Z9patsjs/view","label_stats":{"3.27":{"detections":28,"mean_conf":0.887,"max_conf":0.925}},"alt":580.29,"session":"2026-10-09_20261009T094326Z","kind":"sign"}},{"type":"Feature","geometry":{"type":"Point","coordinates":[44.7117467,41.7204596]},"properties":{"pole_id":57,"labels":["5.16"],"track_ids":[98],"conf":0.813,"n_frames":16,"first_ts":1791539483294155000,"last_ts":1791539483827419000,"image":"20261009T094326Z_photos/sign_57.jpg","gnss_q":"FLOAT","n_obs":16,"n_views":16,"dmin_m":10.194,"dmed_m":12.041,"err_h_m":null,"tier":"C","method":"legacy","source":"gnss","pos_src":"rt","n_tracks":1,"n_passes":1,"chunk":"20261009T094326Z_c0001","prov":0,"photo_exact":true,"photo_url":"https://drive.google.com/thumbnail?id=1B8N3yrVoDRPw0zYU-c5voguD05vaT9kq&sz=w1200","photo_view":"https://drive.google.com/file/d/1B8N3yrVoDRPw0zYU-c5voguD05vaT9kq/view","label_stats":{"5.16":{"detections":16,"mean_conf":0.658,"max_conf":0.813}},"alt":580.69,"session":"2026-10-09_20261009T094326Z","kind":"sign"}},{"type":"Feature","geometry":{"type":"Point","coordinates":[44.7119094,41.7204525]},"properties":{"pole_id":58,"labels":["3.27"],"track_ids":[100],"conf":0.936,"n_frames":51,"first_ts":1791539484993920000,"last_ts":1791539486627054000,"image":"20261009T094326Z_photos/sign_58.jpg","gnss_q":"FLOAT","n_obs":51,"n_views":50,"dmin_m":7.607,"dmed_m":10.974,"err_h_m":null,"tier":"C","method":"legacy","source":"gnss","pos_src":"rt","n_tracks":1,"n_passes":1,"chunk":"20261009T094326Z_c0001","prov":0,"photo_exact":true,"photo_url":"https://drive.google.com/thumbnail?id=13rDVgQgQhlxMr-k5Gqnk30MW0Kbe71CL&sz=w1200","photo_view":"https://drive.google.com/file/d/13rDVgQgQhlxMr-k5Gqnk30MW0Kbe71CL/view","label_stats":{"3.27":{"detections":51,"mean_conf":0.86,"max_conf":0.936}},"alt":579.92,"session":"2026-10-09_20261009T094326Z","kind":"sign"}},{"type":"Feature","geometry":{"type":"Point","coordinates":[44.7119108,41.7204525]},"properties":{"pole_id":59,"labels":["5.19.1"],"track_ids":[101],"conf":0.93,"n_frames":48,"first_ts":1791539485060600000,"last_ts":1791539486627054000,"image":"20261009T094326Z_photos/sign_59.jpg","gnss_q":"FLOAT","n_obs":48,"n_views":48,"dmin_m":7.013,"dmed_m":11.009,"err_h_m":null,"tier":"C","method":"legacy","source":"gnss","pos_src":"rt","n_tracks":1,"n_passes":1,"chunk":"20261009T094326Z_c0001","prov":0,"photo_exact":true,"photo_url":"https://drive.google.com/thumbnail?id=1yFk4ZBfrRXWsjI5_c58wuVxfvkIfNHnT&sz=w1200","photo_view":"https://drive.google.com/file/d/1yFk4ZBfrRXWsjI5_c58wuVxfvkIfNHnT/view","label_stats":{"5.19.1":{"detections":48,"mean_conf":0.898,"max_conf":0.93}},"alt":578.95,"session":"2026-10-09_20261009T094326Z","kind":"sign"}},{"type":"Feature","geometry":{"type":"Point","coordinates":[44.7119086,41.7204535]},"properties":{"pole_id":60,"labels":["Manqanis_gadayvana"],"track_ids":[102],"conf":0.679,"n_frames":9,"first_ts":1791539486027136000,"last_ts":1791539486593713000,"image":"20261009T094326Z_photos/sign_60.jpg","gnss_q":"FLOAT","n_obs":9,"n_views":9,"dmin_m":7.253,"dmed_m":8.108,"err_h_m":null,"tier":"C","method":"legacy","source":"gnss","pos_src":"rt","n_tracks":1,"n_passes":1,"chunk":"20261009T094326Z_c0001","prov":0,"photo_exact":true,"photo_url":"https://drive.google.com/thumbnail?id=1NpuPJGIV7vCB3k1_1p5Paaoa7RRr3TYg&sz=w1200","photo_view":"https://drive.google.com/file/d/1NpuPJGIV7vCB3k1_1p5Paaoa7RRr3TYg/view","label_stats":{"Manqanis_gadayvana":{"detections":9,"mean_conf":0.489,"max_conf":0.679}},"alt":579.29,"session":"2026-10-09_20261009T094326Z","kind":"sign"}},{"type":"Feature","geometry":{"type":"Point","coordinates":[44.7121876,41.7204138]},"properties":{"pole_id":61,"labels":["7.4"],"track_ids":[103],"conf":0.916,"n_frames":31,"first_ts":1791539488993420000,"last_ts":1791539489993296000,"image":"20261009T094326Z_photos/sign_61.jpg","gnss_q":"FLOAT","n_obs":31,"n_views":31,"dmin_m":9.208,"dmed_m":11.424,"err_h_m":null,"tier":"C","method":"legacy","source":"gnss","pos_src":"rt","n_tracks":1,"n_passes":1,"chunk":"20261009T094326Z_c0001","prov":0,"photo_exact":true,"photo_url":"https://drive.google.com/thumbnail?id=1JN6nuTUIrPeQeJM7rM8rRuiOUh8YEPOR&sz=w1200","photo_view":"https://drive.google.com/file/d/1JN6nuTUIrPeQeJM7rM8rRuiOUh8YEPOR/view","label_stats":{"7.4":{"detections":31,"mean_conf":0.851,"max_conf":0.916}},"alt":579.26,"session":"2026-10-09_20261009T094326Z","kind":"sign"}},{"type":"Feature","geometry":{"type":"Point","coordinates":[44.7125169,41.7203797]},"properties":{"pole_id":62,"labels":["7.4"],"track_ids":[104],"conf":0.939,"n_frames":17,"first_ts":1791539494592713000,"last_ts":1791539495192633000,"image":"20261009T094326Z_photos/sign_62.jpg","gnss_q":"FLOAT","n_obs":17,"n_views":17,"dmin_m":8.811,"dmed_m":10.367,"err_h_m":null,"tier":"C","method":"legacy","source":"gnss","pos_src":"rt","n_tracks":1,"n_passes":1,"chunk":"20261009T094326Z_c0001","prov":0,"photo_exact":true,"photo_url":"https://drive.google.com/thumbnail?id=1dRIHG9_ce6uXDCF3idrKCDixxzs84Ugv&sz=w1200","photo_view":"https://drive.google.com/file/d/1dRIHG9_ce6uXDCF3idrKCDixxzs84Ugv/view","label_stats":{"7.4":{"detections":16,"mean_conf":0.846,"max_conf":0.939}},"alt":577.56,"session":"2026-10-09_20261009T094326Z","kind":"sign"}},{"type":"Feature","geometry":{"type":"Point","coordinates":[44.7129481,41.7203221]},"properties":{"pole_id":63,"labels":["7.4"],"track_ids":[105],"conf":0.94,"n_frames":32,"first_ts":1791539502458375000,"last_ts":1791539503491565000,"image":"20261009T094326Z_photos/sign_63.jpg","gnss_q":"FLOAT","n_obs":32,"n_views":32,"dmin_m":10.341,"dmed_m":12.361,"err_h_m":null,"tier":"C","method":"legacy","source":"gnss","pos_src":"rt","n_tracks":1,"n_passes":1,"chunk":"20261009T094326Z_c0001","prov":0,"photo_exact":true,"photo_url":"https://drive.google.com/thumbnail?id=1ygzCGoNArJ91kYvfmfPvosckgpY-fnbi&sz=w1200","photo_view":"https://drive.google.com/file/d/1ygzCGoNArJ91kYvfmfPvosckgpY-fnbi/view","label_stats":{"7.4":{"detections":31,"mean_conf":0.906,"max_conf":0.94}},"alt":575.87,"session":"2026-10-09_20261009T094326Z","kind":"sign"}},{"type":"Feature","geometry":{"type":"Point","coordinates":[44.7134224,41.7202745]},"properties":{"pole_id":64,"labels":["7.4"],"track_ids":[109],"conf":0.933,"n_frames":27,"first_ts":1791539510057394000,"last_ts":1791539510923957000,"image":"20261009T094326Z_photos/sign_64.jpg","gnss_q":"FLOAT","n_obs":27,"n_views":27,"dmin_m":10.196,"dmed_m":12.397,"err_h_m":null,"tier":"C","method":"legacy","source":"gnss","pos_src":"rt","n_tracks":1,"n_passes":1,"chunk":"20261009T094326Z_c0001","prov":0,"photo_exact":true,"photo_url":"https://drive.google.com/thumbnail?id=1nw6-xU50EliFNN9MuH8mHt36hnxeM4E5&sz=w1200","photo_view":"https://drive.google.com/file/d/1nw6-xU50EliFNN9MuH8mHt36hnxeM4E5/view","label_stats":{"7.4":{"detections":27,"mean_conf":0.914,"max_conf":0.933}},"alt":573.77,"session":"2026-10-09_20261009T094326Z","kind":"sign"}},{"type":"Feature","geometry":{"type":"Point","coordinates":[44.7140185,41.7202167]},"properties":{"pole_id":65,"labels":["5.19.1"],"track_ids":[111],"conf":0.939,"n_frames":35,"first_ts":1791539518956234000,"last_ts":1791539520089447000,"image":"20261009T094326Z_photos/sign_65.jpg","gnss_q":"FLOAT","n_obs":35,"n_views":35,"dmin_m":9.422,"dmed_m":12.283,"err_h_m":null,"tier":"C","method":"legacy","source":"gnss","pos_src":"rt","n_tracks":1,"n_passes":1,"chunk":"20261009T094326Z_c0001","prov":0,"photo_exact":true,"photo_url":"https://drive.google.com/thumbnail?id=14W2XSj6ewfP7NGNE0lk140dZIOaBsBbH&sz=w1200","photo_view":"https://drive.google.com/file/d/14W2XSj6ewfP7NGNE0lk140dZIOaBsBbH/view","label_stats":{"5.19.1":{"detections":35,"mean_conf":0.919,"max_conf":0.939}},"alt":570.44,"session":"2026-10-09_20261009T094326Z","kind":"sign"}},{"type":"Feature","geometry":{"type":"Point","coordinates":[44.7141263,41.720359]},"properties":{"pole_id":66,"labels":["5.19.1"],"track_ids":[112],"conf":0.843,"n_frames":9,"first_ts":1791539520922668000,"last_ts":1791539521189286000,"image":"20261009T094326Z_photos/sign_66.jpg","gnss_q":"FLOAT","n_obs":9,"n_views":9,"dmin_m":11.642,"dmed_m":13.356,"err_h_m":null,"tier":"C","method":"legacy","source":"gnss","pos_src":"rt","n_tracks":1,"n_passes":1,"chunk":"20261009T094326Z_c0001","prov":0,"photo_exact":true,"photo_url":"https://drive.google.com/thumbnail?id=1EQhXdzD7IrMGUwKGgLhhmzOCORvy6_Jo&sz=w1200","photo_view":"https://drive.google.com/file/d/1EQhXdzD7IrMGUwKGgLhhmzOCORvy6_Jo/view","label_stats":{"5.19.1":{"detections":8,"mean_conf":0.63,"max_conf":0.843}},"alt":571.18,"session":"2026-10-09_20261009T094326Z","kind":"sign"}},{"type":"Feature","geometry":{"type":"Point","coordinates":[44.7141982,41.7201647]},"properties":{"pole_id":67,"labels":["3.27"],"track_ids":[114],"conf":0.91,"n_frames":15,"first_ts":1791539523222373000,"last_ts":1791539523688956000,"image":"20261009T094326Z_photos/sign_67.jpg","gnss_q":"FLOAT","n_obs":15,"n_views":15,"dmin_m":14.561,"dmed_m":14.665,"err_h_m":null,"tier":"C","method":"legacy","source":"gnss","pos_src":"rt","n_tracks":1,"n_passes":1,"chunk":"20261009T094326Z_c0001","prov":0,"photo_exact":true,"photo_url":"https://drive.google.com/thumbnail?id=1q65ePyOXXEBO4C9b_tizh7ll7PMkSbDd&sz=w1200","photo_view":"https://drive.google.com/file/d/1q65ePyOXXEBO4C9b_tizh7ll7PMkSbDd/view","label_stats":{"3.27":{"detections":15,"mean_conf":0.896,"max_conf":0.91}},"alt":570.39,"session":"2026-10-09_20261009T094326Z","kind":"sign"}},{"type":"Feature","geometry":{"type":"Point","coordinates":[44.7142019,41.720161]},"properties":{"pole_id":68,"labels":["Manqanis_gadayvana"],"track_ids":[115],"conf":0.77,"n_frames":3,"first_ts":1791539523388996000,"last_ts":1791539523555646000,"image":"20261009T094326Z_photos/sign_68.jpg","gnss_q":"FLOAT","n_obs":3,"n_views":3,"dmin_m":14.782,"dmed_m":14.813,"err_h_m":null,"tier":"C","method":"legacy","source":"gnss","pos_src":"rt","n_tracks":1,"n_passes":1,"chunk":"20261009T094326Z_c0001","prov":0,"photo_exact":true,"photo_url":"https://drive.google.com/thumbnail?id=1niXnL8cUlrTM1kvV8Pw3uBY9J_IzmVe_&sz=w1200","photo_view":"https://drive.google.com/file/d/1niXnL8cUlrTM1kvV8Pw3uBY9J_IzmVe_/view","label_stats":{"Manqanis_gadayvana":{"detections":3,"mean_conf":0.606,"max_conf":0.77}},"alt":569.96,"session":"2026-10-09_20261009T094326Z","kind":"sign"}},{"type":"Feature","geometry":{"type":"Point","coordinates":[44.7144912,41.7201733]},"properties":{"pole_id":69,"labels":["3.27","5.16"],"track_ids":[118],"conf":0.935,"n_frames":40,"first_ts":1791539528654986000,"last_ts":1791539530188124000,"image":"20261009T094326Z_photos/sign_69.jpg","gnss_q":"FLOAT","n_obs":40,"n_views":39,"dmin_m":8.687,"dmed_m":11.341,"err_h_m":null,"tier":"C","method":"legacy","source":"gnss","pos_src":"rt","n_tracks":1,"n_passes":1,"chunk":"20261009T094326Z_c0001","prov":0,"photo_exact":true,"photo_url":"https://drive.google.com/thumbnail?id=1obsfuMYdeiNoihfOeTl-OmewVymIMKW7&sz=w1200","photo_view":"https://drive.google.com/file/d/1obsfuMYdeiNoihfOeTl-OmewVymIMKW7/view","label_stats":{"3.27":{"detections":31,"mean_conf":0.9,"max_conf":0.935},"5.16":{"detections":33,"mean_conf":0.925,"max_conf":0.944}},"alt":569.15,"session":"2026-10-09_20261009T094326Z","kind":"sign"}},{"type":"Feature","geometry":{"type":"Point","coordinates":[44.7144943,41.7201735]},"properties":{"pole_id":70,"labels":["5.16"],"track_ids":[119],"conf":0.944,"n_frames":24,"first_ts":1791539529154936000,"last_ts":1791539529921504000,"image":"20261009T094326Z_photos/sign_70.jpg","gnss_q":"FLOAT","n_obs":24,"n_views":24,"dmin_m":9.633,"dmed_m":12.331,"err_h_m":null,"tier":"C","method":"legacy","source":"gnss","pos_src":"rt","n_tracks":1,"n_passes":1,"chunk":"20261009T094326Z_c0001","prov":0,"photo_exact":true,"photo_url":"https://drive.google.com/thumbnail?id=1FSE__EsbLU6_Dk3Y0ZcsldgqwnteZHX2&sz=w1200","photo_view":"https://drive.google.com/file/d/1FSE__EsbLU6_Dk3Y0ZcsldgqwnteZHX2/view","label_stats":{"5.16":{"detections":25,"mean_conf":0.921,"max_conf":0.944}},"alt":569.41,"session":"2026-10-09_20261009T094326Z","kind":"sign"}},{"type":"Feature","geometry":{"type":"Point","coordinates":[44.7147066,41.7203034]},"properties":{"pole_id":71,"labels":["3.28"],"track_ids":[120,122,124],"conf":0.823,"n_frames":8,"first_ts":1791539533920971000,"last_ts":1791539537353860000,"image":"20261009T094326Z_photos/sign_71.jpg","gnss_q":"FLOAT","n_obs":8,"n_views":8,"dmin_m":12.401,"dmed_m":12.934,"err_h_m":null,"tier":"C","method":"legacy","source":"gnss","pos_src":"rt","n_tracks":3,"n_passes":1,"chunk":"20261009T094326Z_c0001","prov":0,"photo_exact":true,"photo_url":"https://drive.google.com/thumbnail?id=1FT6kHzh4se09nDy7a9dyrf2gmOeJOije&sz=w1200","photo_view":"https://drive.google.com/file/d/1FT6kHzh4se09nDy7a9dyrf2gmOeJOije/view","label_stats":{"3.28":{"detections":7,"mean_conf":0.513,"max_conf":0.823}},"alt":566.95,"session":"2026-10-09_20261009T094326Z","kind":"sign"}},{"type":"Feature","geometry":{"type":"Point","coordinates":[44.7147408,41.7201479]},"properties":{"pole_id":72,"labels":["7.20.2"],"track_ids":[121,123,125],"conf":0.928,"n_frames":37,"first_ts":1791539535187490000,"last_ts":1791539538187088000,"image":"20261009T094326Z_photos/sign_72.jpg","gnss_q":"FLOAT","n_obs":37,"n_views":37,"dmin_m":14.262,"dmed_m":14.723,"err_h_m":null,"tier":"C","method":"legacy","source":"gnss","pos_src":"rt","n_tracks":3,"n_passes":1,"chunk":"20261009T094326Z_c0001","prov":0,"photo_exact":true,"photo_url":"https://drive.google.com/thumbnail?id=1nAXcF8tc0x-1gvzqlkC5SJUdQ0-El6Ky&sz=w1200","photo_view":"https://drive.google.com/file/d/1nAXcF8tc0x-1gvzqlkC5SJUdQ0-El6Ky/view","label_stats":{"7.20.2":{"detections":37,"mean_conf":0.833,"max_conf":0.928}},"alt":569.46,"session":"2026-10-09_20261009T094326Z","kind":"sign"}},{"type":"Feature","geometry":{"type":"Point","coordinates":[44.7146893,41.7203344]},"properties":{"pole_id":73,"labels":["5.21"],"track_ids":[126,130],"conf":0.977,"n_frames":148,"first_ts":1791539538187088000,"last_ts":1791539543119769000,"image":"20261009T094326Z_photos/sign_73.jpg","gnss_q":"DGNSS","n_obs":148,"n_views":147,"dmin_m":3.738,"dmed_m":6.616,"err_h_m":null,"tier":"C","method":"legacy","source":"gnss","pos_src":"rt","n_tracks":2,"n_passes":1,"chunk":"20261009T094326Z_c0001","prov":0,"photo_exact":true,"photo_url":"https://drive.google.com/thumbnail?id=1FUSyznpzPm0R3rYUMxqF0kJQ9x8Z8q8s&sz=w1200","photo_view":"https://drive.google.com/file/d/1FUSyznpzPm0R3rYUMxqF0kJQ9x8Z8q8s/view","label_stats":{"5.21":{"detections":148,"mean_conf":0.861,"max_conf":0.977}},"alt":567.76,"session":"2026-10-09_20261009T094326Z","kind":"sign"}},{"type":"Feature","geometry":{"type":"Point","coordinates":[44.7146787,41.7203612]},"properties":{"pole_id":74,"labels":["2.4"],"track_ids":[127],"conf":0.966,"n_frames":170,"first_ts":1791539539153643000,"last_ts":1791539544786241000,"image":"20261009T094326Z_photos/sign_74.jpg","gnss_q":"DGNSS","n_obs":170,"n_views":169,"dmin_m":3.581,"dmed_m":6.713,"err_h_m":null,"tier":"C","method":"legacy","source":"gnss","pos_src":"rt","n_tracks":1,"n_passes":1,"chunk":"20261009T094326Z_c0001","prov":0,"photo_exact":true,"photo_url":"https://drive.google.com/thumbnail?id=1PzKgkT3r59fwbKH0n_W3jhlK8hf9Lm80&sz=w1200","photo_view":"https://drive.google.com/file/d/1PzKgkT3r59fwbKH0n_W3jhlK8hf9Lm80/view","label_stats":{"2.4":{"detections":171,"mean_conf":0.901,"max_conf":0.966}},"alt":566.76,"session":"2026-10-09_20261009T094326Z","kind":"sign"}},{"type":"Feature","geometry":{"type":"Point","coordinates":[44.7147415,41.7204316]},"properties":{"pole_id":75,"labels":["3.27","8.1.1"],"track_ids":[131],"conf":0.919,"n_frames":54,"first_ts":1791539543253105000,"last_ts":1791539545886085000,"image":"20261009T094326Z_photos/sign_75.jpg","gnss_q":"FLOAT","n_obs":54,"n_views":54,"dmin_m":4.216,"dmed_m":12.791,"err_h_m":null,"tier":"C","method":"legacy","source":"gnss","pos_src":"rt","n_tracks":1,"n_passes":1,"chunk":"20261009T094326Z_c0001","prov":0,"photo_exact":true,"photo_url":"https://drive.google.com/thumbnail?id=12m5FAsySwuNvRcAHdM9u8Bh0PFn8CV3t&sz=w1200","photo_view":"https://drive.google.com/file/d/12m5FAsySwuNvRcAHdM9u8Bh0PFn8CV3t/view","label_stats":{"3.27":{"detections":51,"mean_conf":0.873,"max_conf":0.919},"8.1.1":{"detections":5,"mean_conf":0.541,"max_conf":0.726}},"alt":567.54,"session":"2026-10-09_20261009T094326Z","kind":"sign"}},{"type":"Feature","geometry":{"type":"Point","coordinates":[44.7146697,41.7203815]},"properties":{"pole_id":76,"labels":["3.24_30"],"track_ids":[132],"conf":0.735,"n_frames":3,"first_ts":1791539543419754000,"last_ts":1791539543686373000,"image":"20261009T094326Z_photos/sign_76.jpg","gnss_q":"FLOAT","n_obs":3,"n_views":3,"dmin_m":6.075,"dmed_m":6.548,"err_h_m":null,"tier":"C","method":"legacy","source":"gnss","pos_src":"rt","n_tracks":1,"n_passes":1,"chunk":"20261009T094326Z_c0001","prov":0,"photo_exact":true,"photo_url":"https://drive.google.com/thumbnail?id=1Jb2jg2LNSdzY6ijK4OCzHZ3NFrfWI-dj&sz=w1200","photo_view":"https://drive.google.com/file/d/1Jb2jg2LNSdzY6ijK4OCzHZ3NFrfWI-dj/view","label_stats":{"3.24_30":{"detections":2,"mean_conf":0.628,"max_conf":0.735}},"alt":566.84,"session":"2026-10-09_20261009T094326Z","kind":"sign"}},{"type":"Feature","geometry":{"type":"Point","coordinates":[44.7147436,41.7204328]},"properties":{"pole_id":77,"labels":["Manqanis_gadayvana"],"track_ids":[133],"conf":0.794,"n_frames":23,"first_ts":1791539544419601000,"last_ts":1791539545852753000,"image":"20261009T094326Z_photos/sign_77.jpg","gnss_q":"FLOAT","n_obs":23,"n_views":23,"dmin_m":3.838,"dmed_m":12.605,"err_h_m":null,"tier":"C","method":"legacy","source":"gnss","pos_src":"rt","n_tracks":1,"n_passes":1,"chunk":"20261009T094326Z_c0001","prov":0,"photo_exact":true,"photo_url":"https://drive.google.com/thumbnail?id=1S8gI3zOEFlEcfOouM4KvVITU24fCjFd4&sz=w1200","photo_view":"https://drive.google.com/file/d/1S8gI3zOEFlEcfOouM4KvVITU24fCjFd4/view","label_stats":{"Manqanis_gadayvana":{"detections":21,"mean_conf":0.641,"max_conf":0.794}},"alt":567.09,"session":"2026-10-09_20261009T094326Z","kind":"sign"}},{"type":"Feature","geometry":{"type":"Point","coordinates":[44.7147037,41.7205204]},"properties":{"pole_id":78,"labels":["7.4"],"track_ids":[134],"conf":0.943,"n_frames":95,"first_ts":1791539549685586000,"last_ts":1791539552751856000,"image":"20261009T094326Z_photos/sign_78.jpg","gnss_q":"FLOAT","n_obs":95,"n_views":93,"dmin_m":4.715,"dmed_m":8.73,"err_h_m":null,"tier":"C","method":"legacy","source":"gnss","pos_src":"rt","n_tracks":1,"n_passes":1,"chunk":"20261009T094326Z_c0001","prov":0,"photo_exact":true,"photo_url":"https://drive.google.com/thumbnail?id=1E3crG2eUC8fk09xYT7jAWSkktDyzz-bi&sz=w1200","photo_view":"https://drive.google.com/file/d/1E3crG2eUC8fk09xYT7jAWSkktDyzz-bi/view","label_stats":{"7.4":{"detections":95,"mean_conf":0.881,"max_conf":0.943}},"alt":567.65,"session":"2026-10-09_20261009T094326Z","kind":"sign"}},{"type":"Feature","geometry":{"type":"Point","coordinates":[44.7147099,41.720527]},"properties":{"pole_id":79,"labels":["1.24"],"track_ids":[135],"conf":0.883,"n_frames":53,"first_ts":1791539549818922000,"last_ts":1791539551885320000,"image":"20261009T094326Z_photos/sign_79.jpg","gnss_q":"FLOAT","n_obs":53,"n_views":49,"dmin_m":6.924,"dmed_m":10.812,"err_h_m":null,"tier":"C","method":"legacy","source":"gnss","pos_src":"rt","n_tracks":1,"n_passes":1,"chunk":"20261009T094326Z_c0001","prov":0,"photo_exact":true,"photo_url":"https://drive.google.com/thumbnail?id=1S52LLPNyQrtm4LkBgAaqoau88cB5xAGB&sz=w1200","photo_view":"https://drive.google.com/file/d/1S52LLPNyQrtm4LkBgAaqoau88cB5xAGB/view","label_stats":{"1.24":{"detections":48,"mean_conf":0.582,"max_conf":0.883}},"alt":567.0,"session":"2026-10-09_20261009T094326Z","kind":"sign"}},{"type":"Feature","geometry":{"type":"Point","coordinates":[44.7147048,41.7205209]},"properties":{"pole_id":80,"labels":["1.22"],"track_ids":[136],"conf":0.936,"n_frames":38,"first_ts":1791539551252061000,"last_ts":1791539552851850000,"image":"20261009T094326Z_photos/sign_80.jpg","gnss_q":"FLOAT","n_obs":38,"n_views":38,"dmin_m":4.263,"dmed_m":5.851,"err_h_m":null,"tier":"C","method":"legacy","source":"gnss","pos_src":"rt","n_tracks":1,"n_passes":1,"chunk":"20261009T094326Z_c0001","prov":0,"photo_exact":true,"photo_url":"https://drive.google.com/thumbnail?id=1-YgzAsmPqeiSAkYeb83fSJwMcHxfMUMU&sz=w1200","photo_view":"https://drive.google.com/file/d/1-YgzAsmPqeiSAkYeb83fSJwMcHxfMUMU/view","label_stats":{"1.22":{"detections":35,"mean_conf":0.771,"max_conf":0.936}},"alt":566.73,"session":"2026-10-09_20261009T094326Z","kind":"sign"}},{"type":"Feature","geometry":{"type":"Point","coordinates":[44.714581,41.7207167]},"properties":{"pole_id":81,"labels":["7.4"],"track_ids":[137],"conf":0.65,"n_frames":3,"first_ts":1791539557117963000,"last_ts":1791539557251272000,"image":"20261009T094326Z_photos/sign_81.jpg","gnss_q":"FLOAT","n_obs":3,"n_views":3,"dmin_m":14.484,"dmed_m":14.788,"err_h_m":null,"tier":"C","method":"legacy","source":"gnss","pos_src":"rt","n_tracks":1,"n_passes":1,"chunk":"20261009T094326Z_c0001","prov":0,"photo_exact":true,"photo_url":"https://drive.google.com/thumbnail?id=1_gaIUDQxWrQkM1G0ceqVvm6OuJmj7lhz&sz=w1200","photo_view":"https://drive.google.com/file/d/1_gaIUDQxWrQkM1G0ceqVvm6OuJmj7lhz/view","label_stats":{"7.4":{"detections":2,"mean_conf":0.573,"max_conf":0.65}},"alt":564.64,"session":"2026-10-09_20261009T094326Z","kind":"sign"}},{"type":"Feature","geometry":{"type":"Point","coordinates":[44.7147839,41.7208431]},"properties":{"pole_id":82,"labels":["7.4"],"track_ids":[138],"conf":0.931,"n_frames":80,"first_ts":1791539561617378000,"last_ts":1791539564517000000,"image":"20261009T094326Z_photos/sign_82.jpg","gnss_q":"FLOAT","n_obs":80,"n_views":80,"dmin_m":5.728,"dmed_m":9.509,"err_h_m":null,"tier":"C","method":"legacy","source":"gnss","pos_src":"rt","n_tracks":1,"n_passes":1,"chunk":"20261009T094326Z_c0001","prov":0,"photo_exact":true,"photo_url":"https://drive.google.com/thumbnail?id=11yZUfwIaxBcvD3FFjt6GyzQl5zBFO9xD&sz=w1200","photo_view":"https://drive.google.com/file/d/11yZUfwIaxBcvD3FFjt6GyzQl5zBFO9xD/view","label_stats":{"7.4":{"detections":80,"mean_conf":0.867,"max_conf":0.931}},"alt":566.56,"session":"2026-10-09_20261009T094326Z","kind":"sign"}},{"type":"Feature","geometry":{"type":"Point","coordinates":[44.7147851,41.7208902]},"properties":{"pole_id":83,"labels":["3.18.2"],"track_ids":[140],"conf":0.847,"n_frames":11,"first_ts":1791539564183700000,"last_ts":1791539565083577000,"image":"20261009T094326Z_photos/sign_83.jpg","gnss_q":"FLOAT","n_obs":11,"n_views":11,"dmin_m":7.222,"dmed_m":9.333,"err_h_m":null,"tier":"C","method":"legacy","source":"gnss","pos_src":"rt","n_tracks":1,"n_passes":1,"chunk":"20261009T094326Z_c0001","prov":0,"photo_exact":true,"photo_url":"https://drive.google.com/thumbnail?id=149n9wTcYV0g_-gSszBE_qGBSOBgBsaxe&sz=w1200","photo_view":"https://drive.google.com/file/d/149n9wTcYV0g_-gSszBE_qGBSOBgBsaxe/view","label_stats":{"3.18.2":{"detections":11,"mean_conf":0.668,"max_conf":0.847}},"alt":565.17,"session":"2026-10-09_20261009T094326Z","kind":"sign"}},{"type":"Feature","geometry":{"type":"Point","coordinates":[44.7148834,41.7213948]},"properties":{"pole_id":84,"labels":["1.23"],"track_ids":[142],"conf":0.929,"n_frames":22,"first_ts":1791539584747664000,"last_ts":1791539585747537000,"image":"20261009T094326Z_photos/sign_84.jpg","gnss_q":"DGNSS","n_obs":22,"n_views":22,"dmin_m":4.954,"dmed_m":6.62,"err_h_m":null,"tier":"C","method":"legacy","source":"gnss","pos_src":"rt","n_tracks":1,"n_passes":1,"chunk":"20261009T094326Z_c0001","prov":0,"photo_exact":true,"photo_url":"https://drive.google.com/thumbnail?id=1b6sAnfVs5JI-nrhf9XpGiRDidYGx22OE&sz=w1200","photo_view":"https://drive.google.com/file/d/1b6sAnfVs5JI-nrhf9XpGiRDidYGx22OE/view","label_stats":{"1.23":{"detections":21,"mean_conf":0.732,"max_conf":0.929}},"alt":564.13,"session":"2026-10-09_20261009T094326Z","kind":"sign"}},{"type":"Feature","geometry":{"type":"Point","coordinates":[44.7148622,41.7218165]},"properties":{"pole_id":85,"labels":["4.4"],"track_ids":[144],"conf":0.629,"n_frames":9,"first_ts":1791539597379347000,"last_ts":1791539597979265000,"image":"20261009T094326Z_photos/sign_85.jpg","gnss_q":"DGNSS","n_obs":9,"n_views":9,"dmin_m":6.006,"dmed_m":7.203,"err_h_m":null,"tier":"C","method":"legacy","source":"gnss","pos_src":"rt","n_tracks":1,"n_passes":1,"chunk":"20261009T094326Z_c0001","prov":0,"photo_exact":true,"photo_url":"https://drive.google.com/thumbnail?id=1oZ5UlIlWohltEKBGAQQiG9HBRpnk9hku&sz=w1200","photo_view":"https://drive.google.com/file/d/1oZ5UlIlWohltEKBGAQQiG9HBRpnk9hku/view","label_stats":{"4.4":{"detections":4,"mean_conf":0.541,"max_conf":0.629}},"alt":565.04,"session":"2026-10-09_20261009T094326Z","kind":"sign"}},{"type":"Feature","geometry":{"type":"Point","coordinates":[44.7148848,41.7219593]},"properties":{"pole_id":86,"labels":["3.27"],"track_ids":[145],"conf":0.959,"n_frames":94,"first_ts":1791539599412404000,"last_ts":1791539602512012000,"image":"20261009T094326Z_photos/sign_86.jpg","gnss_q":"FLOAT","n_obs":94,"n_views":94,"dmin_m":4.589,"dmed_m":9.29,"err_h_m":null,"tier":"C","method":"legacy","source":"gnss","pos_src":"rt","n_tracks":1,"n_passes":1,"chunk":"20261009T094326Z_c0001","prov":0,"photo_exact":true,"photo_url":"https://drive.google.com/thumbnail?id=1RA5_bQ5b5qCJDCDFcekqmRB0Go_-P1KW&sz=w1200","photo_view":"https://drive.google.com/file/d/1RA5_bQ5b5qCJDCDFcekqmRB0Go_-P1KW/view","label_stats":{"3.27":{"detections":187,"mean_conf":0.907,"max_conf":0.959}},"alt":565.21,"session":"2026-10-09_20261009T094326Z","kind":"sign"}},{"type":"Feature","geometry":{"type":"Point","coordinates":[44.7148843,41.7219598]},"properties":{"pole_id":87,"labels":["Manqanis_gadayvana"],"track_ids":[146],"conf":0.934,"n_frames":90,"first_ts":1791539599445744000,"last_ts":1791539602512012000,"image":"20261009T094326Z_photos/sign_87.jpg","gnss_q":"FLOAT","n_obs":90,"n_views":90,"dmin_m":4.792,"dmed_m":9.217,"err_h_m":null,"tier":"C","method":"legacy","source":"gnss","pos_src":"rt","n_tracks":1,"n_passes":1,"chunk":"20261009T094326Z_c0001","prov":0,"photo_exact":true,"photo_url":"https://drive.google.com/thumbnail?id=1JfEiB4P7-XL3tXHjcOVtmSrUlfRbvqQU&sz=w1200","photo_view":"https://drive.google.com/file/d/1JfEiB4P7-XL3tXHjcOVtmSrUlfRbvqQU/view","label_stats":{"Manqanis_gadayvana":{"detections":90,"mean_conf":0.761,"max_conf":0.934}},"alt":565.69,"session":"2026-10-09_20261009T094326Z","kind":"sign"}},{"type":"Feature","geometry":{"type":"Point","coordinates":[44.7148841,41.721961]},"properties":{"pole_id":88,"labels":["3.27"],"track_ids":[147],"conf":0.949,"n_frames":94,"first_ts":1791539599445744000,"last_ts":1791539602512012000,"image":"20261009T094326Z_photos/sign_88.jpg","gnss_q":"FLOAT","n_obs":94,"n_views":93,"dmin_m":5.097,"dmed_m":9.483,"err_h_m":null,"tier":"C","method":"legacy","source":"gnss","pos_src":"rt","n_tracks":1,"n_passes":1,"chunk":"20261009T094326Z_c0001","prov":0,"photo_exact":true,"photo_url":"https://drive.google.com/thumbnail?id=1D4gzVtSd1ofaJbbCTywixu2VzBr1nBjW&sz=w1200","photo_view":"https://drive.google.com/file/d/1D4gzVtSd1ofaJbbCTywixu2VzBr1nBjW/view","label_stats":{"3.27":{"detections":186,"mean_conf":0.907,"max_conf":0.959}},"alt":566.13,"session":"2026-10-09_20261009T094326Z","kind":"sign"}},{"type":"Feature","geometry":{"type":"Point","coordinates":[44.7148852,41.7219594]},"properties":{"pole_id":89,"labels":["1.17"],"track_ids":[148],"conf":0.909,"n_frames":70,"first_ts":1791539600078978000,"last_ts":1791539602478670000,"image":"20261009T094326Z_photos/sign_89.jpg","gnss_q":"FLOAT","n_obs":70,"n_views":69,"dmin_m":4.445,"dmed_m":9.053,"err_h_m":null,"tier":"C","method":"legacy","source":"gnss","pos_src":"rt","n_tracks":1,"n_passes":1,"chunk":"20261009T094326Z_c0001","prov":0,"photo_exact":true,"photo_url":"https://drive.google.com/thumbnail?id=1j44spjErhX0OeouZZCboz-GMaZOEog8B&sz=w1200","photo_view":"https://drive.google.com/file/d/1j44spjErhX0OeouZZCboz-GMaZOEog8B/view","label_stats":{"1.17":{"detections":66,"mean_conf":0.79,"max_conf":0.909}},"alt":564.69,"session":"2026-10-09_20261009T094326Z","kind":"sign"}},{"type":"Feature","geometry":{"type":"Point","coordinates":[44.71458,41.7219234]},"properties":{"pole_id":90,"labels":["5.7.2"],"track_ids":[149],"conf":0.953,"n_frames":69,"first_ts":1791539604978334000,"last_ts":1791539607211379000,"image":"20261009T094326Z_photos/sign_90.jpg","gnss_q":"FLOAT","n_obs":69,"n_views":68,"dmin_m":5.114,"dmed_m":8.408,"err_h_m":null,"tier":"C","method":"legacy","source":"gnss","pos_src":"rt","n_tracks":1,"n_passes":1,"chunk":"20261009T094326Z_c0001","prov":0,"photo_exact":true,"photo_url":"https://drive.google.com/thumbnail?id=11phJ4ZdL6Fc5m2F0wfIF8B3xxLXgzgBD&sz=w1200","photo_view":"https://drive.google.com/file/d/11phJ4ZdL6Fc5m2F0wfIF8B3xxLXgzgBD/view","label_stats":{"5.7.2":{"detections":68,"mean_conf":0.911,"max_conf":0.953}},"alt":570.75,"session":"2026-10-09_20261009T094326Z","kind":"sign"}},{"type":"Feature","geometry":{"type":"Point","coordinates":[44.7145678,41.7218949]},"properties":{"pole_id":91,"labels":["7.4"],"track_ids":[150],"conf":0.911,"n_frames":17,"first_ts":1791539605978205000,"last_ts":1791539606544808000,"image":"20261009T094326Z_photos/sign_91.jpg","gnss_q":"FLOAT","n_obs":17,"n_views":17,"dmin_m":9.391,"dmed_m":10.201,"err_h_m":null,"tier":"C","method":"legacy","source":"gnss","pos_src":"rt","n_tracks":1,"n_passes":1,"chunk":"20261009T094326Z_c0001","prov":0,"photo_exact":true,"photo_url":"https://drive.google.com/thumbnail?id=1KXX66_Jo1FtGqKrbtj5xSW7RU2CoidaQ&sz=w1200","photo_view":"https://drive.google.com/file/d/1KXX66_Jo1FtGqKrbtj5xSW7RU2CoidaQ/view","label_stats":{"7.4":{"detections":20,"mean_conf":0.749,"max_conf":0.911}},"alt":570.69,"session":"2026-10-09_20261009T094326Z","kind":"sign"}},{"type":"Feature","geometry":{"type":"Point","coordinates":[44.7145043,41.7219086]},"properties":{"pole_id":92,"labels":["7.4"],"track_ids":[151],"conf":0.938,"n_frames":321,"first_ts":1791539606344817000,"last_ts":1791539617310051000,"image":"20261009T094326Z_photos/sign_92.jpg","gnss_q":"DGNSS","n_obs":321,"n_views":321,"dmin_m":3.345,"dmed_m":7.517,"err_h_m":null,"tier":"C","method":"legacy","source":"gnss","pos_src":"rt","n_tracks":1,"n_passes":1,"chunk":"20261009T094326Z_c0001","prov":0,"photo_exact":true,"photo_url":"https://drive.google.com/thumbnail?id=1V8MaVlgp30UEczU_D25zCpw7dgmtCvOx&sz=w1200","photo_view":"https://drive.google.com/file/d/1V8MaVlgp30UEczU_D25zCpw7dgmtCvOx/view","label_stats":{"7.4":{"detections":557,"mean_conf":0.893,"max_conf":0.957}},"alt":571.45,"session":"2026-10-09_20261009T094326Z","kind":"sign"}},{"type":"Feature","geometry":{"type":"Point","coordinates":[44.7144797,41.7220086]},"properties":{"pole_id":93,"labels":["7.4"],"track_ids":[152,153],"conf":0.957,"n_frames":229,"first_ts":1791539606378159000,"last_ts":1791539614443748000,"image":"20261009T094326Z_photos/sign_93.jpg","gnss_q":"FLOAT","n_obs":229,"n_views":227,"dmin_m":9.327,"dmed_m":9.637,"err_h_m":null,"tier":"C","method":"legacy","source":"gnss","pos_src":"rt","n_tracks":2,"n_passes":1,"chunk":"20261009T094326Z_c0001","prov":0,"photo_exact":true,"photo_url":"https://drive.google.com/thumbnail?id=1QOT7rjYpmVDczz0313hLna7K42PrJ5em&sz=w1200","photo_view":"https://drive.google.com/file/d/1QOT7rjYpmVDczz0313hLna7K42PrJ5em/view","label_stats":{"7.4":{"detections":469,"mean_conf":0.893,"max_conf":0.957}},"alt":569.95,"session":"2026-10-09_20261009T094326Z","kind":"sign"}},{"type":"Feature","geometry":{"type":"Point","coordinates":[44.7145316,41.721606]},"properties":{"pole_id":94,"labels":["4.2.1"],"track_ids":[157],"conf":0.527,"n_frames":3,"first_ts":1791539624509080000,"last_ts":1791539624575763000,"image":"20261009T094326Z_photos/sign_94.jpg","gnss_q":"DGNSS","n_obs":3,"n_views":2,"dmin_m":7.82,"dmed_m":7.889,"err_h_m":null,"tier":"C","method":"legacy","source":"gnss","pos_src":"rt","n_tracks":1,"n_passes":1,"chunk":"20261009T094326Z_c0001","prov":0,"photo_exact":true,"photo_url":"https://drive.google.com/thumbnail?id=1_ys5qeVSx0_bWEMhTmxW2t99EZpfoR3X&sz=w1200","photo_view":"https://drive.google.com/file/d/1_ys5qeVSx0_bWEMhTmxW2t99EZpfoR3X/view","label_stats":{"4.2.1":{"detections":2,"mean_conf":0.466,"max_conf":0.527}},"alt":568.84,"session":"2026-10-09_20261009T094326Z","kind":"sign"}},{"type":"Feature","geometry":{"type":"MultiLineString","coordinates":[[[44.7144058,41.7214302],[44.7144058,41.7214302]]]},"properties":{"kind":"track_pending","session":"2026-10-09_20261009T094326Z"}},{"type":"Feature","geometry":{"type":"MultiLineString","coordinates":[[[44.714433,41.7214422],[44.7144574,41.7214409],[44.7144781,41.7214505],[44.7144864,41.7214326],[44.7144809,41.7214148],[44.7144762,41.7213956],[44.7144719,41.7213769],[44.7144675,41.7213562],[44.7144635,41.7213362],[44.7144621,41.7213142],[44.7144619,41.7212917],[44.7144634,41.7212715],[44.7144605,41.7212528],[44.7144594,41.7212331],[44.7144572,41.7212145],[44.7144491,41.7211967],[44.7144368,41.7211796],[44.7144143,41.7211704],[44.7143891,41.7211666],[44.7143635,41.7211669],[44.7143379,41.721168],[44.7143117,41.7211694],[44.7142808,41.7211713],[44.7142472,41.721174],[44.7142184,41.7211761],[44.7141897,41.7211783],[44.7141641,41.7211803],[44.7141376,41.7211831],[44.7141142,41.7211901],[44.7140952,41.7212034],[44.7140847,41.721222],[44.7140833,41.7212427],[44.7140851,41.7212629],[44.7140882,41.7212816],[44.7140925,41.721303],[44.7140962,41.7213212],[44.7141005,41.7213416],[44.7141051,41.7213632],[44.71411,41.7213855],[44.7141151,41.7214082],[44.7141192,41.7214305],[44.714124,41.7214522],[44.7141282,41.7214734],[44.7141324,41.7214937],[44.7141367,41.721516],[44.7141409,41.721537],[44.7141447,41.7215561],[44.7141485,41.7215742],[44.7141498,41.7215936],[44.7141478,41.7216117],[44.714138,41.7216287],[44.7141196,41.7216411],[44.7140964,41.7216493],[44.7140727,41.721653],[44.7140456,41.7216548],[44.7140202,41.7216556],[44.7139934,41.7216541],[44.7139701,41.7216472],[44.7139513,41.7216334],[44.7139413,41.7216151],[44.7139375,41.7215968],[44.7139364,41.7215744],[44.7139356,41.721555],[44.7139339,41.7215333],[44.7139319,41.7215096],[44.7139295,41.7214848],[44.7139265,41.7214595],[44.7139226,41.7214333],[44.7139179,41.7214065],[44.7139145,41.721388],[44.713911,41.7213689],[44.7139075,41.7213496],[44.713904,41.7213301],[44.7139005,41.7213105],[44.7138968,41.721291],[44.7138934,41.7212716],[44.7138898,41.7212522],[44.7138861,41.7212334],[44.7138827,41.7212152],[44.7138777,41.7211888],[44.713873,41.7211637],[44.7138688,41.7211398],[44.7138649,41.7211171],[44.7138613,41.7210953],[44.7138575,41.7210751],[44.7138493,41.7210542],[44.713834,41.721037],[44.7138135,41.7210256],[44.7137897,41.7210198],[44.7137648,41.7210189],[44.7137372,41.7210215],[44.7137081,41.7210252],[44.7136814,41.7210285],[44.7136532,41.721032],[44.7136268,41.7210352],[44.7135976,41.7210379],[44.7135737,41.7210404],[44.7135485,41.721043],[44.7135245,41.7210455],[44.7134998,41.7210468],[44.7134733,41.7210476],[44.7134478,41.7210471],[44.7134234,41.721041],[44.713402,41.7210271],[44.7133841,41.7210115],[44.7133645,41.7209952],[44.7133402,41.7209796],[44.71332,41.7209679],[44.7133008,41.7209546],[44.7132835,41.7209392],[44.7132682,41.7209213],[44.7132556,41.7209006],[44.713245,41.7208776],[44.7132357,41.7208526],[44.7132303,41.7208347],[44.7132256,41.7208161],[44.7132214,41.7207964],[44.713218,41.7207762],[44.7132154,41.7207556],[44.7132132,41.7207345],[44.7132111,41.7207132],[44.7132092,41.720692],[44.7132073,41.720671],[44.7132051,41.7206503],[44.7132025,41.7206305],[44.7131992,41.7206114],[44.713196,41.720593],[44.7131902,41.7205674],[44.7131837,41.7205456],[44.7131775,41.7205275],[44.7131696,41.7205066],[44.7131621,41.7204873],[44.7131528,41.7204686],[44.71314,41.7204513],[44.7131188,41.7204373],[44.7130878,41.720429],[44.7130542,41.7204274],[44.7130274,41.7204292],[44.7129974,41.7204322],[44.7129641,41.7204352],[44.7129281,41.720439],[44.7128897,41.7204432],[44.7128492,41.7204475],[44.7128067,41.7204518],[44.7127624,41.720456],[44.7127166,41.72046],[44.7126694,41.7204641],[44.7126219,41.7204679],[44.7125745,41.720472],[44.7124564,41.7204666],[44.7124089,41.7204711],[44.7123847,41.7204736],[44.7123603,41.7204763],[44.7123357,41.7204788],[44.7123108,41.7204822],[44.7122857,41.720485],[44.7122605,41.7204879],[44.7122351,41.72049],[44.7122094,41.7204931],[44.7121835,41.7204955],[44.7121576,41.7204983],[44.7121315,41.720501],[44.7121057,41.7205036],[44.7120794,41.7205059],[44.7120534,41.7205082],[44.7120277,41.7205105],[44.7120025,41.720513],[44.7119775,41.7205155],[44.7119533,41.7205177],[44.7119293,41.7205202],[44.7118822,41.7205251],[44.7118362,41.7205304],[44.7117911,41.7205354],[44.7117461,41.7205397],[44.7117022,41.7205446],[44.7116597,41.720549],[44.7116191,41.7205537],[44.7115797,41.7205578],[44.7115421,41.7205617],[44.7115056,41.7205658],[44.7114708,41.7205696],[44.7114371,41.7205731],[44.7114044,41.7205765],[44.7113723,41.7205801],[44.7113409,41.7205837],[44.7113106,41.7205872],[44.7112806,41.7205906],[44.7112516,41.7205939],[44.7112229,41.720597],[44.7111941,41.7205998],[44.7111655,41.7206027],[44.7111368,41.7206054],[44.7111074,41.7206083],[44.711077,41.7206112],[44.7110458,41.7206141],[44.711014,41.7206172],[44.7109817,41.7206206],[44.7109486,41.7206241],[44.7109144,41.7206273],[44.7108795,41.7206304],[44.7108441,41.7206338],[44.7108085,41.7206374],[44.7107724,41.7206404],[44.7107357,41.7206439],[44.7106984,41.7206469],[44.7106605,41.7206499],[44.7106221,41.7206528],[44.7105839,41.7206556],[44.710547,41.7206582],[44.7105116,41.7206599],[44.7104775,41.7206626],[44.7104449,41.7206646],[44.7104134,41.7206662],[44.7103825,41.720668],[44.7103518,41.7206697],[44.7103215,41.7206713],[44.7102911,41.7206727],[44.7102605,41.7206744],[44.71023,41.7206775],[44.7101994,41.7206804],[44.7101686,41.7206823],[44.7101379,41.720684],[44.7101069,41.7206856],[44.7100752,41.720687],[44.7100431,41.7206887],[44.71001,41.7206906],[44.7099759,41.7206927],[44.7099406,41.7206949],[44.7099044,41.7206972],[44.7098675,41.7206997],[44.7098305,41.7207025],[44.7097938,41.7207055],[44.7097575,41.7207088],[44.7097213,41.7207122],[44.7096851,41.7207153],[44.7096488,41.7207187],[44.7096123,41.7207219],[44.7095754,41.720725],[44.7095384,41.7207282],[44.7095017,41.7207315],[44.7094651,41.7207343],[44.7095219,41.7207452],[44.7094848,41.7207479],[44.7094483,41.7207505],[44.7094122,41.7207535],[44.7093753,41.7207562],[44.7093381,41.720759],[44.7093007,41.7207621],[44.7092628,41.7207646],[44.7092247,41.7207675],[44.7091864,41.72077],[44.7091476,41.7207725],[44.7091081,41.7207756],[44.7090679,41.7207784],[44.7090264,41.7207824],[44.7089853,41.7207854],[44.7089457,41.7207882],[44.7089072,41.7207911],[44.7088708,41.7207954],[44.708835,41.7207986],[44.7088019,41.7208009],[44.7087694,41.7208035],[44.7087391,41.7208054],[44.7087097,41.7208075],[44.7086806,41.7208097],[44.7086537,41.7208113],[44.7086287,41.7208126],[44.7085943,41.720816],[44.7085628,41.7208161],[44.7085366,41.720814],[44.708513,41.7208037],[44.7085003,41.7207859],[44.7085239,41.7207773],[44.7085515,41.7207722],[44.708579,41.7207717],[44.708612,41.7207726],[44.7086379,41.7207726],[44.7086656,41.7207726],[44.7086956,41.7207715],[44.7087277,41.7207703],[44.7087611,41.7207691],[44.7087958,41.7207672],[44.7088315,41.7207647],[44.7088692,41.7207627],[44.7089066,41.72076],[44.708945,41.7207572],[44.7089836,41.7207543],[44.7090233,41.7207516],[44.7090632,41.7207484],[44.7091042,41.7207455],[44.7091461,41.7207421],[44.7091896,41.7207389],[44.7092349,41.7207357],[44.7092814,41.7207322],[44.709328,41.7207288],[44.7093742,41.7207252],[44.7094202,41.7207217],[44.7094661,41.7207179],[44.7095116,41.7207136],[44.7095567,41.7207095],[44.7096019,41.7207055],[44.7096471,41.7207022],[44.7096921,41.7206992],[44.7097369,41.7206963],[44.7097815,41.7206935],[44.7098262,41.7206908],[44.70987,41.7206876],[44.7099142,41.7206852],[44.7099581,41.7206822],[44.7100018,41.7206787],[44.7100454,41.7206752],[44.7100889,41.7206717],[44.7101321,41.720669],[44.7101753,41.720667],[44.7102181,41.720666],[44.710261,41.720665],[44.710304,41.7206641],[44.7103465,41.7206623],[44.7103895,41.72066],[44.7104323,41.7206574],[44.710475,41.7206546],[44.710518,41.7206521],[44.7105609,41.7206489],[44.7106039,41.7206457],[44.710647,41.7206423],[44.7106901,41.7206386],[44.7107331,41.7206346],[44.7107761,41.7206306],[44.7108191,41.7206262],[44.7108622,41.7206218],[44.7109049,41.7206173],[44.7109476,41.7206125],[44.71099,41.720607],[44.7110324,41.7206017],[44.7110746,41.7205966],[44.711116,41.7205918],[44.7111561,41.720587],[44.711195,41.7205824],[44.7112325,41.7205782],[44.7112698,41.7205739],[44.7113069,41.7205699],[44.7113439,41.7205662],[44.7113802,41.7205626],[44.7114165,41.7205589],[44.7114522,41.7205548],[44.7114883,41.7205508],[44.7115239,41.720547],[44.7115594,41.720543],[44.7115948,41.7205389],[44.7116289,41.7205346],[44.7116607,41.720531],[44.7116894,41.7205268],[44.7117165,41.7205237],[44.7117436,41.7205206],[44.711771,41.7205178],[44.7117983,41.7205151],[44.711826,41.720512],[44.7118549,41.7205094],[44.7118855,41.7205069],[44.7119176,41.7205043],[44.7119513,41.7205021],[44.7119854,41.7204996],[44.7120192,41.7204965],[44.7120521,41.7204931],[44.7120834,41.7204898],[44.7121133,41.7204865],[44.7121426,41.7204834],[44.7121701,41.7204804],[44.7121953,41.7204774],[44.7122298,41.7204739],[44.7122652,41.7204705],[44.7123012,41.7204671],[44.7123255,41.7204646],[44.7123498,41.7204625],[44.7123745,41.7204604],[44.7123992,41.7204579],[44.7124244,41.7204556],[44.7124487,41.7204529],[44.7124812,41.7204495],[44.7125098,41.7204462],[44.712536,41.7204433],[44.7125631,41.7204403],[44.7125911,41.7204372],[44.7126202,41.720434],[44.7126503,41.7204306],[44.7126811,41.7204269],[44.7127129,41.7204231],[44.7127457,41.7204191],[44.7127793,41.7204151],[44.7128135,41.7204111],[44.7128485,41.7204069],[44.7128723,41.7204039],[44.7128962,41.7204012],[44.7129204,41.7203982],[44.7129449,41.7203953],[44.7129699,41.7203924],[44.712995,41.7203895],[44.7130205,41.7203868],[44.7130462,41.7203842],[44.7130811,41.7203802],[44.713116,41.7203766],[44.7131514,41.7203728],[44.7131764,41.7203705],[44.7132027,41.7203682],[44.7132301,41.7203655],[44.7132583,41.7203628],[44.7132863,41.7203602],[44.7133145,41.7203575],[44.7133426,41.7203545],[44.7133709,41.7203517],[44.7133992,41.7203489],[44.7134274,41.7203459],[44.7134557,41.7203427],[44.7134842,41.7203396],[44.7135128,41.7203364],[44.7135409,41.7203333],[44.7135673,41.7203307],[44.7135938,41.7203285],[44.71362,41.7203264],[44.7136467,41.7203244],[44.7136734,41.7203223],[44.7137001,41.7203202],[44.7137269,41.720318],[44.7137536,41.7203152],[44.7137803,41.7203124],[44.7138048,41.7203097],[44.7138394,41.7203055],[44.7138735,41.7203012],[44.7139082,41.720297],[44.7139434,41.7202927],[44.7139765,41.720289],[44.7140067,41.7202856],[44.7140339,41.7202826],[44.7140578,41.7202799],[44.7140857,41.7202766],[44.7141122,41.7202738],[44.7141411,41.7202708],[44.7141717,41.7202681],[44.7142024,41.7202646],[44.7142266,41.7202618],[44.714253,41.7202584],[44.714281,41.7202547],[44.7143097,41.7202508],[44.7143394,41.7202473],[44.7143691,41.7202438],[44.7143987,41.7202406],[44.7144268,41.7202377],[44.7144526,41.720235],[44.714486,41.7202314],[44.7145135,41.7202286],[44.7145402,41.7202258],[44.7145652,41.7202236],[44.7145895,41.7202254],[44.7146145,41.7202358],[44.7146335,41.7202504],[44.7146442,41.720267],[44.7146499,41.7202858],[44.7146519,41.7203058],[44.7146482,41.7203253],[44.7146443,41.7203439],[44.714639,41.7203621],[44.7146366,41.7203803],[44.7146385,41.7204014],[44.7146423,41.7204215],[44.7146479,41.7204425],[44.7146542,41.7204653],[44.7146592,41.7204885],[44.7146643,41.7205106],[44.7146694,41.7205312],[44.7146735,41.7205533],[44.7146766,41.7205728],[44.7146786,41.7205945],[44.7146789,41.7206181],[44.7146789,41.7206368],[44.7146816,41.7206602],[44.7146851,41.7206817],[44.7146899,41.7207037],[44.7146968,41.7207266],[44.7147025,41.7207443],[44.7147087,41.720762],[44.7147144,41.7207802],[44.7147206,41.7207984],[44.7147265,41.720817],[44.7147334,41.7208391],[44.7147387,41.7208571],[44.7147435,41.720877],[44.7147479,41.7208979],[44.7147516,41.7209163],[44.7147556,41.7209369],[44.7147594,41.7209596],[44.7147632,41.7209782],[44.7147667,41.7209994],[44.7147711,41.7210226],[44.7147745,41.7210462],[44.7147789,41.7210695],[44.7147838,41.721093],[44.7147876,41.7211161],[44.7147909,41.7211347],[44.7147947,41.7211535],[44.714799,41.7211744],[44.7148031,41.7211938],[44.7148069,41.7212163],[44.7148107,41.7212353],[44.714814,41.7212571],[44.7148184,41.721281],[44.7148234,41.7213065],[44.7148271,41.7213246],[44.7148308,41.7213449],[44.7148357,41.7213661],[44.7148386,41.721389],[44.7148429,41.7214118],[44.7148467,41.7214348],[44.7148504,41.7214572],[44.7148544,41.7214785],[44.7148577,41.7214993],[44.714861,41.7215188],[44.7148659,41.7215432],[44.7148701,41.7215616],[44.7148739,41.7215824],[44.7148784,41.7216032],[44.7148815,41.7216221],[44.7148851,41.7216425],[44.7148885,41.7216662],[44.7148927,41.7216894],[44.7148959,41.7217109],[44.7148988,41.7217333],[44.7149015,41.7217517],[44.7149044,41.7217704],[44.7149079,41.7217889],[44.7149112,41.7218093],[44.7149151,41.7218318],[44.7149174,41.7218537],[44.7149145,41.7218741],[44.7149052,41.7218923],[44.7148899,41.7219069],[44.714868,41.7219185],[44.7148386,41.7219261],[44.7148046,41.7219324],[44.7147785,41.7219362],[44.7147536,41.7219391],[44.7147282,41.7219409],[44.7147038,41.7219424],[44.7146722,41.7219445],[44.7146482,41.7219467],[44.7146212,41.7219481],[44.7145958,41.7219504],[44.7145695,41.7219511],[44.7145481,41.7219384],[44.7145379,41.7219208],[44.7145299,41.7219014],[44.7145217,41.7218798],[44.7145149,41.7218564],[44.7145096,41.7218373],[44.714505,41.7218157],[44.7145009,41.7217916],[44.7144965,41.7217664],[44.7144923,41.7217397],[44.7144887,41.7217209],[44.7144862,41.7217026],[44.7144831,41.7216836],[44.7144781,41.7216575],[44.714475,41.7216311],[44.7144711,41.7216063],[44.7144681,41.7215824],[44.7144643,41.7215599],[44.7144623,41.7215382],[44.7144589,41.7215175],[44.7144564,41.7214981],[44.7144537,41.7214749],[44.7144482,41.7214572],[44.7144335,41.7214414],[44.7144146,41.72143],[44.7144058,41.7214302]]]},"properties":{"kind":"track","session":"2026-10-09_20261009T094326Z"}}]}